[{
  "placeName": "Grant Heights Theater",
  "kinds": "architecture,historic_architecture,cinemas,cultural,theatres_and_entertainments,interesting_places,destroyed_objects",
  "city": "Tokyo"
},{
  "placeName": "Chueigekijo Theater",
  "kinds": "cinemas,cultural,theatres_and_entertainments,interesting_places",
  "city": "Tokyo"
},{
  "placeName": "Meigaza Theater",
  "kinds": "cinemas,cultural,theatres_and_entertainments,interesting_places",
  "city": "Tokyo"
},{
  "placeName": "Tokyo City Hall Tower II",
  "kinds": "skyscrapers,architecture,interesting_places",
  "city": "Tokyo"
},{
  "placeName": "Shinjuku Central Park",
  "kinds": "urban_environment,gardens_and_parks,cultural,interesting_places",
  "city": "Tokyo"
},{
  "placeName": "Shinjuku Niagara Falls",
  "kinds": "fountains,historic,monuments_and_memorials,urban_environment,cultural,water,natural,interesting_places,waterfalls,sculptures,monuments",
  "city": "Tokyo"
},{
  "placeName": "Shingekijo Theater",
  "kinds": "cinemas,cultural,theatres_and_entertainments,interesting_places",
  "city": "Tokyo"
},{
  "placeName": "keio plaza hotel tokyo premier grand",
  "kinds": "skyscrapers,architecture,accomodations,interesting_places,other_hotels",
  "city": "Tokyo"
},{
  "placeName": "Memorial Museum for Soldiers, Detainees in Siberia, and Postwar Repatriates",
  "kinds": "cultural,museums,interesting_places,history_museums,military_museums",
  "city": "Tokyo"
},{
  "placeName": "Shinjuku Sumitomo Building",
  "kinds": "skyscrapers,architecture,interesting_places",
  "city": "Tokyo"
},{
  "placeName": "Tōkaidō",
  "kinds": "other,unclassified_objects,tourist_object,interesting_places",
  "city": "Tokyo"
},{
  "placeName": "Keio Plaza Hotel",
  "kinds": "skyscrapers,architecture,accomodations,interesting_places,other_hotels",
  "city": "Tokyo"
},{
  "placeName": "Juniso Kumano Shrine",
  "kinds": "religion,other_temples,interesting_places",
  "city": "Tokyo"
},{
  "placeName": "keio plaza hotel tokyo",
  "kinds": "skyscrapers,architecture,accomodations,interesting_places,other_hotels",
  "city": "Tokyo"
},{
  "placeName": "Shinjuku Center Building",
  "kinds": "skyscrapers,architecture,interesting_places",
  "city": "Tokyo"
},{
  "placeName": "Juniso Kumano Shrine",
  "kinds": "religion,other_temples,interesting_places",
  "city": "Tokyo"
},{
  "placeName": "KDDI Building",
  "kinds": "skyscrapers,architecture,interesting_places",
  "city": "Tokyo"
},{
  "placeName": "S-tec Information Building",
  "kinds": "skyscrapers,architecture,interesting_places",
  "city": "Tokyo"
},{
  "placeName": "Shinjuku Monolith Building",
  "kinds": "skyscrapers,architecture,interesting_places",
  "city": "Tokyo"
},{
  "placeName": "Shinjuku First West",
  "kinds": "skyscrapers,architecture,interesting_places",
  "city": "Tokyo"
},{
  "placeName": "Kyubei Sushi at Keio Plaza Hotel",
  "kinds": "skyscrapers,architecture,accomodations,interesting_places,other_hotels,restaurants,foods,tourist_facilities",
  "city": "Tokyo"
},{
  "placeName": "Shinjuku Park Tower",
  "kinds": "skyscrapers,architecture,interesting_places",
  "city": "Tokyo"
},{
  "placeName": "Shinjuku I-Land Tower",
  "kinds": "skyscrapers,architecture,interesting_places",
  "city": "Tokyo"
},{
  "placeName": "Shinjuku NS Building",
  "kinds": "skyscrapers,architecture,interesting_places",
  "city": "Tokyo"
},{
  "placeName": "Shinjuku Nomura Building",
  "kinds": "skyscrapers,architecture,interesting_places",
  "city": "Tokyo"
},{
  "placeName": "Shinjuku L Tower",
  "kinds": "skyscrapers,architecture,interesting_places",
  "city": "Tokyo"
},{
  "placeName": "Mode Gakuen Cocoon Tower",
  "kinds": "skyscrapers,architecture,interesting_places",
  "city": "Tokyo"
},{
  "placeName": "Shinjuku Mitsui Building",
  "kinds": "skyscrapers,architecture,interesting_places",
  "city": "Tokyo"
},{
  "placeName": "Space Zero",
  "kinds": "theatres_and_entertainments,cultural,interesting_places,other_theatres",
  "city": "Tokyo"
},{
  "placeName": "Sompo Museum of Art",
  "kinds": "cultural,museums,interesting_places,art_galleries",
  "city": "Tokyo"
},{
  "placeName": "Sumitomo Fudosan Nishishinjuku Building",
  "kinds": "skyscrapers,architecture,interesting_places",
  "city": "Tokyo"
},{
  "placeName": "The Eye of Shinjuku",
  "kinds": "cultural,urban_environment,interesting_places,sculptures",
  "city": "Tokyo"
},{
  "placeName": "Naruko Tenjinsha",
  "kinds": "religion,other_temples,interesting_places",
  "city": "Tokyo"
},{
  "placeName": "Shinjuku Maynds Tower",
  "kinds": "skyscrapers,architecture,interesting_places",
  "city": "Tokyo"
},{
  "placeName": "Yoyogi Seminar Tower",
  "kinds": "skyscrapers,architecture,interesting_places",
  "city": "Tokyo"
},{
  "placeName": "LUMINE the YOSHIMOTO",
  "kinds": "theatres_and_entertainments,cultural,interesting_places,other_theatres",
  "city": "Tokyo"
},{
  "placeName": "Odakyu Dai-ichi Life Building",
  "kinds": "skyscrapers,architecture,interesting_places",
  "city": "Tokyo"
},{
  "placeName": "JR East Headquarters Building",
  "kinds": "skyscrapers,architecture,interesting_places",
  "city": "Tokyo"
},{
  "placeName": "Nikenya Playground",
  "kinds": "urban_environment,gardens_and_parks,cultural,interesting_places",
  "city": "Tokyo"
},{
  "placeName": "Sompo Japan Building",
  "kinds": "skyscrapers,architecture,interesting_places",
  "city": "Tokyo"
},{
  "placeName": "Tokyo Opera City Tower",
  "kinds": "skyscrapers,architecture,interesting_places",
  "city": "Tokyo"
},{
  "placeName": "NTT InterCommunication Center",
  "kinds": "museums,cultural,interesting_places,art_galleries",
  "city": "Tokyo"
},{
  "placeName": "Tsunohazu Girder",
  "kinds": "architecture,bridges,interesting_places,viaducts",
  "city": "Tokyo"
},{
  "placeName": "Shinjuku Southern Terrace Winter Illumination",
  "kinds": "other,unclassified_objects,interesting_places,tourist_object",
  "city": "Tokyo"
},{
  "placeName": "Tokyo Opera City Art Gallery",
  "kinds": "cultural,museums,interesting_places,art_galleries",
  "city": "Tokyo"
},{
  "placeName": "Shinjuku Big Girder Bridge",
  "kinds": "bridges,architecture,interesting_places,viaducts",
  "city": "Tokyo"
},{
  "placeName": "Yamanote Line",
  "kinds": "bridges,architecture,interesting_places,other_bridges",
  "city": "Tokyo"
},{
  "placeName": "Shinjuku Cinema Qualite",
  "kinds": "cultural,cinemas,theatres_and_entertainments,interesting_places",
  "city": "Tokyo"
},{
  "placeName": "JR南新宿ビル",
  "kinds": "skyscrapers,architecture,interesting_places",
  "city": "Tokyo"
},{
  "placeName": "New National Theatre",
  "kinds": "cultural,theatres_and_entertainments,interesting_places,opera_houses",
  "city": "Tokyo"
},{
  "placeName": "San-ya Station",
  "kinds": "industrial_facilities,abandoned_railway_stations,interesting_places",
  "city": "Tokyo"
},{
  "placeName": "Shinjuku Musashinokan",
  "kinds": "cultural,cinemas,theatres_and_entertainments,interesting_places",
  "city": "Tokyo"
},{
  "placeName": "Omoide-yokocho",
  "kinds": "other,unclassified_objects,interesting_places,tourist_object",
  "city": "Tokyo"
},{
  "placeName": "Jōgan-ji",
  "kinds": "religion,buddhist_temples,interesting_places",
  "city": "Tokyo"
},{
  "placeName": "Kabukicho Ichibangai-dori Street",
  "kinds": "cultural,urban_environment,interesting_places,squares",
  "city": "Tokyo"
},{
  "placeName": "Jōgan-ji",
  "kinds": "religion,buddhist_temples,interesting_places",
  "city": "Tokyo"
},{
  "placeName": "Shinjuku Tokyu Milano",
  "kinds": "cinemas,cultural,theatres_and_entertainments,interesting_places",
  "city": "Tokyo"
},{
  "placeName": "Kinokuniya Southern Theatre Takashimaya",
  "kinds": "theatres_and_entertainments,cultural,interesting_places,other_theatres",
  "city": "Tokyo"
},{
  "placeName": "Harmony Square",
  "kinds": "skyscrapers,architecture,interesting_places",
  "city": "Tokyo"
},{
  "placeName": "Shinjuku Joy Cinema",
  "kinds": "theatres_and_entertainments,cultural,interesting_places,other_theatres",
  "city": "Tokyo"
},{
  "placeName": "Yamanote Line",
  "kinds": "bridges,architecture,interesting_places,other_bridges",
  "city": "Tokyo"
},{
  "placeName": "Toa First",
  "kinds": "theatres_and_entertainments,cultural,interesting_places,other_theatres",
  "city": "Tokyo"
},{
  "placeName": "Kinokuniya Hall",
  "kinds": "cultural,theatres_and_entertainments,interesting_places,other_theatres",
  "city": "Tokyo"
},{
  "placeName": "Shinjuku Loft/Plus One",
  "kinds": "cultural,theatres_and_entertainments,interesting_places,music_venues",
  "city": "Tokyo"
},{
  "placeName": "Godzilla (Gojira)",
  "kinds": "historic,monuments_and_memorials,urban_environment,cultural,interesting_places,sculptures,monuments",
  "city": "Tokyo"
},{
  "placeName": "Kojima Kikaku",
  "kinds": "theatres_and_entertainments,cultural,interesting_places,other_theatres",
  "city": "Tokyo"
},{
  "placeName": "kinokuniya",
  "kinds": "cultural,theatres_and_entertainments,interesting_places,other_theatres",
  "city": "Tokyo"
},{
  "placeName": "Toho Cinemas",
  "kinds": "skyscrapers,architecture,cultural,cinemas,theatres_and_entertainments,interesting_places",
  "city": "Tokyo"
},{
  "placeName": "Kabukicho 1-chome",
  "kinds": "urban_environment,cultural,interesting_places,squares",
  "city": "Tokyo"
},{
  "placeName": "Shinjuku Koma Theater",
  "kinds": "theatres_and_entertainments,cultural,interesting_places,other_theatres",
  "city": "Tokyo"
},{
  "placeName": "Kabukicho",
  "kinds": "urban_environment,cultural,interesting_places,squares",
  "city": "Tokyo"
},{
  "placeName": "Kabukichō",
  "kinds": "religion,buddhist_temples,urban_environment,cultural,interesting_places,squares",
  "city": "Tokyo"
},{
  "placeName": "Shinjuku Piccadilly",
  "kinds": "cultural,cinemas,theatres_and_entertainments,interesting_places",
  "city": "Tokyo"
},{
  "placeName": "LOFT",
  "kinds": "cultural,theatres_and_entertainments,interesting_places,music_venues",
  "city": "Tokyo"
},{
  "placeName": "Shinjuku Golden Gai",
  "kinds": "other,unclassified_objects,interesting_places,tourist_object",
  "city": "Tokyo"
},{
  "placeName": "NTT Docomo Yoyogi Building",
  "kinds": "architecture,towers,interesting_places,clock_towers",
  "city": "Tokyo"
},{
  "placeName": "Tokyo Mazu Temple",
  "kinds": "religion,other_temples,interesting_places",
  "city": "Tokyo"
},{
  "placeName": "Yoyogi Pony Park",
  "kinds": "urban_environment,gardens_and_parks,cultural,interesting_places",
  "city": "Tokyo"
},{
  "placeName": "Tenryu-ji Temple",
  "kinds": "religion,buddhist_temples,interesting_places",
  "city": "Tokyo"
},{
  "placeName": "Suehirotei",
  "kinds": "cultural,theatres_and_entertainments,interesting_places,other_theatres",
  "city": "Tokyo"
},{
  "placeName": "Yamanote Line",
  "kinds": "bridges,architecture,interesting_places,other_bridges",
  "city": "Tokyo"
},{
  "placeName": "Shinjuku BLAZE",
  "kinds": "cultural,theatres_and_entertainments,interesting_places,other_theatres",
  "city": "Tokyo"
},{
  "placeName": "Yamanote Line",
  "kinds": "bridges,architecture,interesting_places,other_bridges",
  "city": "Tokyo"
},{
  "placeName": "Kabukicho",
  "kinds": "urban_environment,cultural,interesting_places,squares",
  "city": "Tokyo"
},{
  "placeName": "Yamanote Line",
  "kinds": "bridges,architecture,interesting_places,other_bridges",
  "city": "Tokyo"
},{
  "placeName": "Shinjuku Golden Gai",
  "kinds": "other,unclassified_objects,interesting_places,tourist_object",
  "city": "Tokyo"
},{
  "placeName": "Yamanote Line",
  "kinds": "bridges,architecture,interesting_places,other_bridges",
  "city": "Tokyo"
},{
  "placeName": "Toyoko Inn Shinjuku Kabukicho",
  "kinds": "accomodations,theatres_and_entertainments,cultural,interesting_places,other_theatres,other_hotels",
  "city": "Tokyo"
},{
  "placeName": "Shinjuku Ophthalmologist Gallery",
  "kinds": "cultural,museums,interesting_places,art_galleries",
  "city": "Tokyo"
},{
  "placeName": "Kaichū Inari-jinja",
  "kinds": "religion,other_temples,interesting_places",
  "city": "Tokyo"
},{
  "placeName": "Yamanote Line",
  "kinds": "bridges,architecture,interesting_places,other_bridges",
  "city": "Tokyo"
},{
  "placeName": "Association of Shinto Shrines",
  "kinds": "religion,other_temples,interesting_places",
  "city": "Tokyo"
},{
  "placeName": "Hosenji",
  "kinds": "religion,buddhist_temples,interesting_places",
  "city": "Tokyo"
},{
  "placeName": "Inari Kio Shrine",
  "kinds": "religion,other_temples,interesting_places",
  "city": "Tokyo"
},{
  "placeName": "Hanazono Manjyu",
  "kinds": "religion,other_temples,interesting_places",
  "city": "Tokyo"
},{
  "placeName": "Yamanote Line",
  "kinds": "bridges,architecture,interesting_places,other_bridges",
  "city": "Tokyo"
},{
  "placeName": "Yamanote Line",
  "kinds": "bridges,architecture,interesting_places,other_bridges",
  "city": "Tokyo"
},{
  "placeName": "Taisoji Temple",
  "kinds": "religion,buddhist_temples,interesting_places",
  "city": "Tokyo"
},{
  "placeName": "Hanazono Shrine Haiden",
  "kinds": "religion,other_temples,interesting_places",
  "city": "Tokyo"
},{
  "placeName": "Shinjuku Gyoen National Garden",
  "kinds": "urban_environment,gardens_and_parks,cultural,interesting_places",
  "city": "Tokyo"
},{
  "placeName": "Jokakuji",
  "kinds": "religion,buddhist_temples,interesting_places",
  "city": "Tokyo"
},{
  "placeName": "Shinjuku Eastside Square",
  "kinds": "skyscrapers,architecture,interesting_places",
  "city": "Tokyo"
},{
  "placeName": "Shinjuku Bunka Center",
  "kinds": "cultural,theatres_and_entertainments,interesting_places,other_theatres",
  "city": "Tokyo"
},{
  "placeName": "Tokyo Kōsei Nenkin Kaikan",
  "kinds": "theatres_and_entertainments,cultural,interesting_places,other_theatres",
  "city": "Tokyo"
},{
  "placeName": "Meiji Jingu Shrine",
  "kinds": "religion,other_temples,interesting_places",
  "city": "Tokyo"
},{
  "placeName": "National Noh Theatre",
  "kinds": "cultural,theatres_and_entertainments,interesting_places,other_theatres",
  "city": "Tokyo"
},{
  "placeName": "Yamanote Line",
  "kinds": "bridges,architecture,interesting_places,other_bridges",
  "city": "Tokyo"
},{
  "placeName": "Yamanote Line",
  "kinds": "bridges,architecture,interesting_places,other_bridges",
  "city": "Tokyo"
},{
  "placeName": "Theater Sun-mall",
  "kinds": "theatres_and_entertainments,cultural,interesting_places,other_theatres",
  "city": "Tokyo"
},{
  "placeName": "Tokyo Globe Theater",
  "kinds": "cultural,theatres_and_entertainments,interesting_places,other_theatres",
  "city": "Tokyo"
},{
  "placeName": "Haruno Ogawa Community Park",
  "kinds": "urban_environment,gardens_and_parks,cultural,interesting_places",
  "city": "Tokyo"
},{
  "placeName": "Tsuda Hall",
  "kinds": "concert_halls,cultural,theatres_and_entertainments,interesting_places",
  "city": "Tokyo"
},{
  "placeName": "Meiji Jingu Inner Garden",
  "kinds": "urban_environment,gardens_and_parks,cultural,interesting_places",
  "city": "Tokyo"
},{
  "placeName": "Yoyogi Kōen",
  "kinds": "gardens_and_parks,cultural,urban_environment,interesting_places",
  "city": "Tokyo"
},{
  "placeName": "Hozenji Temple",
  "kinds": "religion,buddhist_temples,interesting_places",
  "city": "Tokyo"
},{
  "placeName": "Hatonomori Hachiman Jinja",
  "kinds": "religion,other_temples,interesting_places",
  "city": "Tokyo"
},{
  "placeName": "Yoyogi Park",
  "kinds": "urban_environment,gardens_and_parks,cultural,interesting_places",
  "city": "Tokyo"
},{
  "placeName": "Toyama Park",
  "kinds": "urban_environment,gardens_and_parks,cultural,interesting_places",
  "city": "Tokyo"
},{
  "placeName": "Yotsuya 4-chome",
  "kinds": "fortifications,defensive_walls,historic,interesting_places",
  "city": "Tokyo"
},{
  "placeName": "Jesus Lifehouse International Church",
  "kinds": "religion,churches,interesting_places,other_churches",
  "city": "Tokyo"
},{
  "placeName": "Lifehouse Osaka",
  "kinds": "religion,churches,interesting_places,other_churches",
  "city": "Tokyo"
},{
  "placeName": "Lifehouse International Church Yokohama",
  "kinds": "religion,churches,interesting_places,other_churches",
  "city": "Tokyo"
},{
  "placeName": "Sato Art Museum",
  "kinds": "cultural,museums,interesting_places,art_galleries",
  "city": "Tokyo"
},{
  "placeName": "Harajuku Station",
  "kinds": "other,unclassified_objects,interesting_places,tourist_object",
  "city": "Tokyo"
},{
  "placeName": "Tokyo Toy Museum",
  "kinds": "cultural,museums,interesting_places,other_museums",
  "city": "Tokyo"
},{
  "placeName": "Chichibu Memorial Sports Museum",
  "kinds": "museums,cultural,interesting_places,other_museums",
  "city": "Tokyo"
},{
  "placeName": "Togo Shrine",
  "kinds": "religion,other_temples,interesting_places",
  "city": "Tokyo"
},{
  "placeName": "Senju-in",
  "kinds": "religion,buddhist_temples,interesting_places",
  "city": "Tokyo"
},{
  "placeName": "Togo-jinja Shrine",
  "kinds": "religion,other_temples,interesting_places",
  "city": "Tokyo"
},{
  "placeName": "Jingu Bridge",
  "kinds": "bridges,architecture,interesting_places,other_bridges",
  "city": "Tokyo"
},{
  "placeName": "Yamanote Line",
  "kinds": "bridges,architecture,interesting_places,other_bridges",
  "city": "Tokyo"
},{
  "placeName": "Yamanote Line",
  "kinds": "bridges,architecture,interesting_places,other_bridges",
  "city": "Tokyo"
},{
  "placeName": "New National Stadium",
  "kinds": "sport,urban_environment,gardens_and_parks,cultural,interesting_places,stadiums",
  "city": "Tokyo"
},{
  "placeName": "Yoyogi Oyama Park",
  "kinds": "urban_environment,gardens_and_parks,cultural,interesting_places",
  "city": "Tokyo"
},{
  "placeName": "Fishing Museum",
  "kinds": "cultural,museums,interesting_places,other_museums",
  "city": "Tokyo"
},{
  "placeName": "Mt. Hakone Yama",
  "kinds": "mountain_peaks,geological_formations,natural,interesting_places",
  "city": "Tokyo"
},{
  "placeName": "Hozenji",
  "kinds": "religion,buddhist_temples,interesting_places",
  "city": "Tokyo"
},{
  "placeName": "Hanazono Jinja Shrine",
  "kinds": "religion,other_temples,interesting_places",
  "city": "Tokyo"
},{
  "placeName": "Ota Memorial Museum of Art",
  "kinds": "cultural,museums,interesting_places,art_galleries",
  "city": "Tokyo"
},{
  "placeName": "Fire Museum",
  "kinds": "cultural,museums,interesting_places,other_museums",
  "city": "Tokyo"
},{
  "placeName": "Yoyogi National Gymnasium",
  "kinds": "cultural,theatres_and_entertainments,interesting_places,music_venues",
  "city": "Tokyo"
},{
  "placeName": "Yoyogi First Gymnasium",
  "kinds": "cultural,theatres_and_entertainments,interesting_places,music_venues",
  "city": "Tokyo"
},{
  "placeName": "Nippon Seinenkan",
  "kinds": "theatres_and_entertainments,cultural,interesting_places,other_theatres",
  "city": "Tokyo"
},{
  "placeName": "Suwa Shrine",
  "kinds": "religion,other_temples,interesting_places",
  "city": "Tokyo"
},{
  "placeName": "NHK Hall",
  "kinds": "cultural,theatres_and_entertainments,interesting_places,other_theatres",
  "city": "Tokyo"
},{
  "placeName": "Meiji Memorial Picture Gallery",
  "kinds": "cultural,museums,interesting_places,art_galleries",
  "city": "Tokyo"
},{
  "placeName": "Castanopsis sieboldii of Meiji Park",
  "kinds": "other,unclassified_objects,tourist_object,interesting_places",
  "city": "Tokyo"
},{
  "placeName": "Yoyogi Second Gymnasium",
  "kinds": "cultural,theatres_and_entertainments,interesting_places,music_venues",
  "city": "Tokyo"
},{
  "placeName": "Saigeiji Temple",
  "kinds": "religion,buddhist_temples,interesting_places",
  "city": "Tokyo"
},{
  "placeName": "JAPAN OLYMPIC MUSEUM",
  "kinds": "cultural,museums,interesting_places,history_museums",
  "city": "Tokyo"
},{
  "placeName": "NHK Fureai Hall",
  "kinds": "cultural,theatres_and_entertainments,interesting_places,other_theatres",
  "city": "Tokyo"
},{
  "placeName": "Shibuya-AX",
  "kinds": "cultural,theatres_and_entertainments,interesting_places,music_venues",
  "city": "Tokyo"
},{
  "placeName": "Kishi Memorial Gymnasium",
  "kinds": "architecture,historic_architecture,interesting_places,destroyed_objects",
  "city": "Tokyo"
},{
  "placeName": "Fuji TV Kawadachō Building",
  "kinds": "architecture,historic_architecture,interesting_places,destroyed_objects",
  "city": "Tokyo"
},{
  "placeName": "Tokyo Camii",
  "kinds": "religion,mosques,interesting_places",
  "city": "Tokyo"
},{
  "placeName": "NHK Studio Park",
  "kinds": "cultural,museums,interesting_places,other_museums",
  "city": "Tokyo"
},{
  "placeName": "AiiA 2.5 Theater Tokyo",
  "kinds": "cultural,theatres_and_entertainments,interesting_places,other_theatres",
  "city": "Tokyo"
},{
  "placeName": "Yamanote Line",
  "kinds": "bridges,architecture,interesting_places,other_bridges",
  "city": "Tokyo"
},{
  "placeName": "Bansyoin Kouunji temple",
  "kinds": "religion,buddhist_temples,interesting_places",
  "city": "Tokyo"
},{
  "placeName": "Meiji Jingu Garden",
  "kinds": "urban_environment,gardens_and_parks,cultural,interesting_places",
  "city": "Tokyo"
},{
  "placeName": "Myogyoji Temple",
  "kinds": "religion,buddhist_temples,interesting_places",
  "city": "Tokyo"
},{
  "placeName": "Chosen-ji",
  "kinds": "religion,buddhist_temples,interesting_places",
  "city": "Tokyo"
},{
  "placeName": "Shibuya Public Hall",
  "kinds": "cultural,theatres_and_entertainments,interesting_places,music_venues",
  "city": "Tokyo"
},{
  "placeName": "Galerie Omotesando",
  "kinds": "cultural,museums,interesting_places,shops,malls,art_galleries,tourist_facilities",
  "city": "Tokyo"
},{
  "placeName": "watrium museum",
  "kinds": "cultural,museums,interesting_places,art_galleries",
  "city": "Tokyo"
},{
  "placeName": "WATARI-UM, watrium, the museum of contemporary art",
  "kinds": "cultural,museums,interesting_places,art_galleries",
  "city": "Tokyo"
},{
  "placeName": "The Watari Museum Contemporary Art",
  "kinds": "cultural,museums,interesting_places,art_galleries",
  "city": "Tokyo"
},{
  "placeName": "SHIBUYA Egg-man",
  "kinds": "cultural,theatres_and_entertainments,interesting_places,music_venues",
  "city": "Tokyo"
},{
  "placeName": "Jingu-dori Park",
  "kinds": "urban_environment,gardens_and_parks,cultural,interesting_places",
  "city": "Tokyo"
},{
  "placeName": "Waseda Chochiku - 早稲田松竹",
  "kinds": "cultural,cinemas,theatres_and_entertainments,interesting_places",
  "city": "Tokyo"
},{
  "placeName": "Shin'eiji Temple",
  "kinds": "religion,buddhist_temples,interesting_places",
  "city": "Tokyo"
},{
  "placeName": "Yamanote Line",
  "kinds": "bridges,architecture,interesting_places,other_bridges",
  "city": "Tokyo"
},{
  "placeName": "Yamanote Line",
  "kinds": "bridges,architecture,interesting_places,other_bridges",
  "city": "Tokyo"
},{
  "placeName": "Tofukuin Temple",
  "kinds": "religion,buddhist_temples,interesting_places",
  "city": "Tokyo"
},{
  "placeName": "Kitadani Park",
  "kinds": "urban_environment,gardens_and_parks,cultural,interesting_places",
  "city": "Tokyo"
},{
  "placeName": "TEPIA",
  "kinds": "museums,cultural,interesting_places,museums_of_science_and_technology,other_technology_museums",
  "city": "Tokyo"
},{
  "placeName": "Onden Shrine",
  "kinds": "religion,other_temples,interesting_places",
  "city": "Tokyo"
},{
  "placeName": "Kaigyoji Temple",
  "kinds": "religion,buddhist_temples,interesting_places",
  "city": "Tokyo"
},{
  "placeName": "Shinjuku Historical Museum",
  "kinds": "cultural,museums,interesting_places,history_museums",
  "city": "Tokyo"
},{
  "placeName": "Fumon Hall",
  "kinds": "cultural,theatres_and_entertainments,interesting_places,other_theatres",
  "city": "Tokyo"
},{
  "placeName": "Jingudori Park",
  "kinds": "urban_environment,gardens_and_parks,cultural,interesting_places",
  "city": "Tokyo"
},{
  "placeName": "Hayashi Fumiko Commemorative Museum",
  "kinds": "biographical_museums,historic_house_museums,cultural,museums,interesting_places,history_museums",
  "city": "Tokyo"
},{
  "placeName": "Yamanote Line",
  "kinds": "bridges,architecture,interesting_places,other_bridges",
  "city": "Tokyo"
},{
  "placeName": "TEPCO museum",
  "kinds": "museums,cultural,science_museums,interesting_places",
  "city": "Tokyo"
},{
  "placeName": "Hoshoji",
  "kinds": "religion,buddhist_temples,interesting_places",
  "city": "Tokyo"
},{
  "placeName": "Yamanote Line",
  "kinds": "bridges,architecture,interesting_places,other_bridges",
  "city": "Tokyo"
},{
  "placeName": "Yamanote Line",
  "kinds": "bridges,architecture,interesting_places,other_bridges",
  "city": "Tokyo"
},{
  "placeName": "Meiji Kinenkan",
  "kinds": "religion,churches,interesting_places,other_churches",
  "city": "Tokyo"
},{
  "placeName": "Yamanote Line",
  "kinds": "bridges,architecture,interesting_places,other_bridges",
  "city": "Tokyo"
},{
  "placeName": "Ana Hachiman Shrine",
  "kinds": "religion,other_temples,interesting_places",
  "city": "Tokyo"
},{
  "placeName": "Great Sacred Hall",
  "kinds": "religion,buddhist_temples,interesting_places",
  "city": "Tokyo"
},{
  "placeName": "Women's Active Museum on War and Peace",
  "kinds": "museums,cultural,interesting_places,other_museums",
  "city": "Tokyo"
},{
  "placeName": "Shinjuku Historical Museum",
  "kinds": "cultural,museums,interesting_places,history_museums",
  "city": "Tokyo"
},{
  "placeName": "Yamanote Line",
  "kinds": "bridges,architecture,interesting_places,other_bridges",
  "city": "Tokyo"
},{
  "placeName": "Yamanote Line",
  "kinds": "bridges,architecture,interesting_places,other_bridges",
  "city": "Tokyo"
},{
  "placeName": "Sainenji Temple",
  "kinds": "religion,buddhist_temples,interesting_places",
  "city": "Tokyo"
},{
  "placeName": "Parco Theater",
  "kinds": "theatres_and_entertainments,cultural,interesting_places,other_theatres",
  "city": "Tokyo"
},{
  "placeName": "Toguri Museum of Art",
  "kinds": "cultural,museums,interesting_places,art_galleries",
  "city": "Tokyo"
},{
  "placeName": "nakano sunplaza hotel",
  "kinds": "accomodations,theatres_and_entertainments,concert_halls,cultural,interesting_places,other_hotels",
  "city": "Tokyo"
},{
  "placeName": "Tokyo Metropolitan Museum of Modern Japanese Literature",
  "kinds": "cultural,museums,interesting_places,other_museums",
  "city": "Tokyo"
},{
  "placeName": "Tanaka Inari-jinja",
  "kinds": "religion,other_temples,interesting_places",
  "city": "Tokyo"
},{
  "placeName": "Chōshōji Temple",
  "kinds": "religion,buddhist_temples,interesting_places",
  "city": "Tokyo"
},{
  "placeName": "Zenkō-ji",
  "kinds": "religion,buddhist_temples,interesting_places",
  "city": "Tokyo"
},{
  "placeName": "Aoyama Asada",
  "kinds": "skyscrapers,architecture,interesting_places,restaurants,foods,tourist_facilities",
  "city": "Tokyo"
},{
  "placeName": "Cinemarise",
  "kinds": "cultural,cinemas,theatres_and_entertainments,interesting_places",
  "city": "Tokyo"
},{
  "placeName": "Yoshimoto Mugendai Hall",
  "kinds": "cultural,theatres_and_entertainments,interesting_places,other_theatres",
  "city": "Tokyo"
},{
  "placeName": "Yamanote Line",
  "kinds": "bridges,architecture,interesting_places,other_bridges",
  "city": "Tokyo"
},{
  "placeName": "LE CINEMA",
  "kinds": "cinemas,cultural,theatres_and_entertainments,interesting_places",
  "city": "Tokyo"
},{
  "placeName": "Yamanote Line",
  "kinds": "bridges,architecture,interesting_places,other_bridges",
  "city": "Tokyo"
},{
  "placeName": "Theatre Cocoon",
  "kinds": "theatres_and_entertainments,cultural,interesting_places,other_theatres",
  "city": "Tokyo"
},{
  "placeName": "Yamanote Line",
  "kinds": "bridges,architecture,interesting_places,other_bridges",
  "city": "Tokyo"
},{
  "placeName": "St Grace Cathedral",
  "kinds": "religion,cathedrals,interesting_places",
  "city": "Tokyo"
},{
  "placeName": "Yamanote Line",
  "kinds": "bridges,architecture,interesting_places,other_bridges",
  "city": "Tokyo"
},{
  "placeName": "Miyashita Park",
  "kinds": "urban_environment,gardens_and_parks,cultural,interesting_places",
  "city": "Tokyo"
},{
  "placeName": "Orchard Hall",
  "kinds": "concert_halls,cultural,theatres_and_entertainments,interesting_places",
  "city": "Tokyo"
},{
  "placeName": "Aoyama St. Grace Cathedral",
  "kinds": "religion,cathedrals,interesting_places",
  "city": "Tokyo"
},{
  "placeName": "Ogasawara-Hakushaku-Tei",
  "kinds": "historic_architecture,architecture,interesting_places,restaurants,foods,tourist_facilities,other_buildings_and_structures",
  "city": "Tokyo"
},{
  "placeName": "Bunkamura",
  "kinds": "museums,theatres_and_entertainments,concert_halls,cultural,interesting_places,art_galleries",
  "city": "Tokyo"
},{
  "placeName": "Komaba Park",
  "kinds": "urban_environment,gardens_and_parks,cultural,interesting_places",
  "city": "Tokyo"
},{
  "placeName": "Mizu Inari Shrine",
  "kinds": "religion,other_temples,interesting_places",
  "city": "Tokyo"
},{
  "placeName": "Mitake Park",
  "kinds": "urban_environment,gardens_and_parks,cultural,interesting_places",
  "city": "Tokyo"
},{
  "placeName": "Omotesandō",
  "kinds": "other,unclassified_objects,interesting_places,tourist_object",
  "city": "Tokyo"
},{
  "placeName": "Tōgū Palace",
  "kinds": "palaces,architecture,historic_architecture,interesting_places",
  "city": "Tokyo"
},{
  "placeName": "Omotesandō",
  "kinds": "other,unclassified_objects,interesting_places,tourist_object",
  "city": "Tokyo"
},{
  "placeName": "Baiso-in",
  "kinds": "religion,buddhist_temples,interesting_places",
  "city": "Tokyo"
},{
  "placeName": "Omotesando District",
  "kinds": "other,unclassified_objects,interesting_places,tourist_object",
  "city": "Tokyo"
},{
  "placeName": "Kansen-en Park",
  "kinds": "gardens_and_parks,cultural,urban_environment,interesting_places",
  "city": "Tokyo"
},{
  "placeName": "Shigenobu Okuma Statue",
  "kinds": "cultural,urban_environment,interesting_places,sculptures",
  "city": "Tokyo"
},{
  "placeName": "Nabeshima Shōtō Park",
  "kinds": "gardens_and_parks,cultural,urban_environment,interesting_places",
  "city": "Tokyo"
},{
  "placeName": "JR Yamanote Freight Line",
  "kinds": "bridges,architecture,interesting_places,other_bridges",
  "city": "Tokyo"
},{
  "placeName": "JR Yamanote Freight Line",
  "kinds": "bridges,architecture,interesting_places,other_bridges",
  "city": "Tokyo"
},{
  "placeName": "Sanshinomori park",
  "kinds": "urban_environment,gardens_and_parks,cultural,interesting_places",
  "city": "Tokyo"
},{
  "placeName": "Aoyama Theatre",
  "kinds": "theatres_and_entertainments,cultural,interesting_places,other_theatres",
  "city": "Tokyo"
},{
  "placeName": "Shibuya Center Gai shopping Street",
  "kinds": "other,unclassified_objects,interesting_places,tourist_object",
  "city": "Tokyo"
},{
  "placeName": "Waseda Aizu Museum",
  "kinds": "cultural,museums,interesting_places,other_museums",
  "city": "Tokyo"
},{
  "placeName": "Aoyama Park",
  "kinds": "gardens_and_parks,cultural,urban_environment,interesting_places",
  "city": "Tokyo"
},{
  "placeName": "Ryūzenji Cemetery",
  "kinds": "cemeteries,historic,burial_places,interesting_places",
  "city": "Tokyo"
},{
  "placeName": "Aoyama The Tower",
  "kinds": "skyscrapers,architecture,interesting_places",
  "city": "Tokyo"
},{
  "placeName": "Kumano Shrine",
  "kinds": "religion,other_temples,interesting_places",
  "city": "Tokyo"
},{
  "placeName": "CNGK",
  "kinds": "theatres_and_entertainments,cultural,interesting_places,other_theatres",
  "city": "Tokyo"
},{
  "placeName": "Shibuya PRIME",
  "kinds": "cultural,theatres_and_entertainments,interesting_places,music_venues,shops,malls,tourist_facilities",
  "city": "Tokyo"
},{
  "placeName": "Waseda University Tsubouchi Memorial Theatre Museum",
  "kinds": "cultural,museums,interesting_places,art_galleries",
  "city": "Tokyo"
},{
  "placeName": "Renkō-ji",
  "kinds": "religion,buddhist_temples,interesting_places",
  "city": "Tokyo"
},{
  "placeName": "Spiral",
  "kinds": "cultural,museums,interesting_places,restaurants,cafes,foods,art_galleries,tourist_facilities",
  "city": "Tokyo"
},{
  "placeName": "Kodomo no Ki (Tree of Children)",
  "kinds": "cultural,urban_environment,interesting_places,sculptures",
  "city": "Tokyo"
},{
  "placeName": "Shoto Museum of Art",
  "kinds": "cultural,museums,interesting_places,art_galleries",
  "city": "Tokyo"
},{
  "placeName": "Shoto Museum of Art",
  "kinds": "cultural,museums,interesting_places,art_galleries",
  "city": "Tokyo"
},{
  "placeName": "Shibuya crossing",
  "kinds": "other,unclassified_objects,interesting_places,tourist_object",
  "city": "Tokyo"
},{
  "placeName": "Toho Cinemas",
  "kinds": "cultural,cinemas,theatres_and_entertainments,interesting_places",
  "city": "Tokyo"
},{
  "placeName": "Yamanote Line",
  "kinds": "bridges,architecture,interesting_places,other_bridges",
  "city": "Tokyo"
},{
  "placeName": "Stamp Museum",
  "kinds": "cultural,museums,interesting_places,other_museums",
  "city": "Tokyo"
},{
  "placeName": "Natsume Soseki Memorial Museum",
  "kinds": "biographical_museums,cultural,museums,interesting_places",
  "city": "Tokyo"
},{
  "placeName": "TOHOシネマズ渋谷",
  "kinds": "cinemas,cultural,theatres_and_entertainments,interesting_places",
  "city": "Tokyo"
},{
  "placeName": "Shibuya Crossing",
  "kinds": "other,unclassified_objects,interesting_places,tourist_object",
  "city": "Tokyo"
},{
  "placeName": "Okuma Auditorium",
  "kinds": "towers,architecture,interesting_places,clock_towers",
  "city": "Tokyo"
},{
  "placeName": "Yamanote Line",
  "kinds": "bridges,architecture,interesting_places,other_bridges",
  "city": "Tokyo"
},{
  "placeName": "Womb",
  "kinds": "nightclubs,cultural,theatres_and_entertainments,interesting_places,adult,music_venues,foods,bars,tourist_facilities",
  "city": "Tokyo"
},{
  "placeName": "Hachiko Square",
  "kinds": "historic,monuments_and_memorials,cultural,urban_environment,interesting_places,sculptures,monuments",
  "city": "Tokyo"
},{
  "placeName": "Hachiko Memorial Statue",
  "kinds": "historic,monuments_and_memorials,urban_environment,cultural,interesting_places,sculptures,monuments",
  "city": "Tokyo"
},{
  "placeName": "Baishō-in",
  "kinds": "religion,buddhist_temples,interesting_places",
  "city": "Tokyo"
},{
  "placeName": "Yayoi Kusama Museum",
  "kinds": "cultural,museums,interesting_places,art_galleries",
  "city": "Tokyo"
},{
  "placeName": "Akasaka Imperial Estate",
  "kinds": "palaces,architecture,historic_architecture,historical_places,historic,interesting_places,historic_districts",
  "city": "Tokyo"
},{
  "placeName": "Saeki Yuzo Atelier Museum",
  "kinds": "biographical_museums,cultural,museums,interesting_places",
  "city": "Tokyo"
},{
  "placeName": "Mitsui Bunko",
  "kinds": "cultural,museums,interesting_places,other_museums",
  "city": "Tokyo"
},{
  "placeName": "Watch Shibuya Crossing",
  "kinds": "view_points,other,interesting_places",
  "city": "Tokyo"
},{
  "placeName": "Nanzo-in",
  "kinds": "religion,other_temples,interesting_places",
  "city": "Tokyo"
},{
  "placeName": "Mark City Shibuya",
  "kinds": "skyscrapers,architecture,interesting_places",
  "city": "Tokyo"
},{
  "placeName": "Jorinji temple",
  "kinds": "cemeteries,religion,historic,buddhist_temples,burial_places,interesting_places",
  "city": "Tokyo"
},{
  "placeName": "Okuma Garden",
  "kinds": "urban_environment,gardens_and_parks,cultural,interesting_places",
  "city": "Tokyo"
},{
  "placeName": "Akasaka Palace",
  "kinds": "guest_houses,palaces,architecture,historic_architecture,accomodations,interesting_places",
  "city": "Tokyo"
},{
  "placeName": "Shibuya Hikarie",
  "kinds": "skyscrapers,architecture,interesting_places,shops,malls,tourist_facilities",
  "city": "Tokyo"
},{
  "placeName": "TOKYU THEATRE Orb",
  "kinds": "theatres_and_entertainments,cultural,interesting_places,other_theatres",
  "city": "Tokyo"
},{
  "placeName": "Gotoh Planetarium and Astronomical Museum",
  "kinds": "planetariums,museums,cultural,science_museums,interesting_places",
  "city": "Tokyo"
},{
  "placeName": "Shibuya Tokyu Bunka Kaikan",
  "kinds": "architecture,historic_architecture,interesting_places,destroyed_objects",
  "city": "Tokyo"
},{
  "placeName": "Myōhō-ji",
  "kinds": "religion,buddhist_temples,interesting_places",
  "city": "Tokyo"
},{
  "placeName": "Theater 711",
  "kinds": "cultural,theatres_and_entertainments,interesting_places,other_theatres",
  "city": "Tokyo"
},{
  "placeName": "THE GUIDE",
  "kinds": "theatres_and_entertainments,cultural,interesting_places,other_theatres",
  "city": "Tokyo"
},{
  "placeName": "Aoyama Twin",
  "kinds": "skyscrapers,architecture,interesting_places",
  "city": "Tokyo"
},{
  "placeName": "Komabano Park",
  "kinds": "urban_environment,gardens_and_parks,cultural,interesting_places",
  "city": "Tokyo"
},{
  "placeName": "Century Foundation",
  "kinds": "museums,cultural,interesting_places,art_galleries",
  "city": "Tokyo"
},{
  "placeName": "Shibuya Scramble Square",
  "kinds": "skyscrapers,architecture,interesting_places",
  "city": "Tokyo"
},{
  "placeName": "Shibuya SKY",
  "kinds": "view_points,other,interesting_places",
  "city": "Tokyo"
},{
  "placeName": "Kojimachi St. Ignatius Church",
  "kinds": "religion,churches,interesting_places,other_churches",
  "city": "Tokyo"
},{
  "placeName": "Shibuya Tokyu",
  "kinds": "cinemas,cultural,theatres_and_entertainments,interesting_places",
  "city": "Tokyo"
},{
  "placeName": "Shibuya Fukuras",
  "kinds": "skyscrapers,architecture,interesting_places",
  "city": "Tokyo"
},{
  "placeName": "Konjō-in",
  "kinds": "religion,buddhist_temples,interesting_places",
  "city": "Tokyo"
},{
  "placeName": "Kitazawa Town Hall",
  "kinds": "cultural,theatres_and_entertainments,interesting_places,other_theatres",
  "city": "Tokyo"
},{
  "placeName": "Aoba Park",
  "kinds": "urban_environment,gardens_and_parks,cultural,interesting_places",
  "city": "Tokyo"
},{
  "placeName": "Aoyama Park",
  "kinds": "urban_environment,gardens_and_parks,cultural,interesting_places",
  "city": "Tokyo"
},{
  "placeName": "Archives",
  "kinds": "cultural,museums,interesting_places,other_museums",
  "city": "Tokyo"
},{
  "placeName": "Takahashi Korekiyo Memorial Park",
  "kinds": "historic,monuments_and_memorials,urban_environment,gardens_and_parks,cultural,interesting_places,monuments",
  "city": "Tokyo"
},{
  "placeName": "Hondagekijiyo",
  "kinds": "cultural,theatres_and_entertainments,interesting_places,other_theatres",
  "city": "Tokyo"
},{
  "placeName": "Cerulean Tower Tokyo Hotel",
  "kinds": "skyscrapers,architecture,accomodations,interesting_places,other_hotels",
  "city": "Tokyo"
},{
  "placeName": "History of Korekiyo Takahashi Memorial Park",
  "kinds": "historic,monuments_and_memorials,urban_environment,gardens_and_parks,cultural,interesting_places,monuments",
  "city": "Tokyo"
},{
  "placeName": "Tōfuku-ji",
  "kinds": "religion,buddhist_temples,interesting_places",
  "city": "Tokyo"
},{
  "placeName": "Kuichigai-mon",
  "kinds": "fortifications,historic,interesting_places,other_fortifications",
  "city": "Tokyo"
},{
  "placeName": "Kioi Hall",
  "kinds": "concert_halls,cultural,theatres_and_entertainments,interesting_places",
  "city": "Tokyo"
},{
  "placeName": "Korekiyo Takahashi Memorial Park",
  "kinds": "historic,monuments_and_memorials,urban_environment,gardens_and_parks,cultural,interesting_places,monuments",
  "city": "Tokyo"
},{
  "placeName": "Konno Hachimangu",
  "kinds": "religion,other_temples,interesting_places",
  "city": "Tokyo"
},{
  "placeName": "Mejiro Woods",
  "kinds": "urban_environment,gardens_and_parks,cultural,interesting_places",
  "city": "Tokyo"
},{
  "placeName": "Nezu Museum",
  "kinds": "cultural,museums,interesting_places,art_galleries",
  "city": "Tokyo"
},{
  "placeName": "Sogetsu Hall",
  "kinds": "cultural,theatres_and_entertainments,interesting_places,other_theatres",
  "city": "Tokyo"
},{
  "placeName": "Nezu Museum",
  "kinds": "cultural,museums,interesting_places,art_galleries",
  "city": "Tokyo"
},{
  "placeName": "Taro Okamoto Memorial Museum",
  "kinds": "biographical_museums,cultural,museums,interesting_places,art_galleries",
  "city": "Tokyo"
},{
  "placeName": "Sogetsu Kaikan",
  "kinds": "other,unclassified_objects,interesting_places,tourist_object",
  "city": "Tokyo"
},{
  "placeName": "Risshō Kōsei Kai",
  "kinds": "religion,buddhist_temples,interesting_places",
  "city": "Tokyo"
},{
  "placeName": "Ichigaya Kamegaoka Hachimangū",
  "kinds": "religion,other_temples,interesting_places",
  "city": "Tokyo"
},{
  "placeName": "Toyosaka Inari",
  "kinds": "religion,other_temples,interesting_places",
  "city": "Tokyo"
},{
  "placeName": "Tomb of Unknown Soldier of Liberation Movement",
  "kinds": "historic,monuments_and_memorials,burial_places,interesting_places,other_burial_places,monuments",
  "city": "Tokyo"
},{
  "placeName": "Sumitomo Fudosan Shibuya First Tower",
  "kinds": "skyscrapers,architecture,interesting_places",
  "city": "Tokyo"
},{
  "placeName": "Statue of Korekiyo Takahashi",
  "kinds": "historic,monuments_and_memorials,urban_environment,gardens_and_parks,cultural,interesting_places,monuments",
  "city": "Tokyo"
},{
  "placeName": "Aoyama Cemetery(Sakura)",
  "kinds": "cemeteries,historic,burial_places,urban_environment,gardens_and_parks,cultural,interesting_places",
  "city": "Tokyo"
},{
  "placeName": "Blue Note Tokyo",
  "kinds": "nightclubs,cultural,theatres_and_entertainments,interesting_places,adult,music_venues,foods,bars,tourist_facilities",
  "city": "Tokyo"
},{
  "placeName": "Museum Cafe",
  "kinds": "cultural,museums,interesting_places,cafes,foods,art_galleries,tourist_facilities",
  "city": "Tokyo"
},{
  "placeName": "Kōen-ji",
  "kinds": "religion,buddhist_temples,interesting_places",
  "city": "Tokyo"
},{
  "placeName": "Shibuya Cultural Center Owada",
  "kinds": "cultural,theatres_and_entertainments,interesting_places,music_venues",
  "city": "Tokyo"
},{
  "placeName": "Eisei Bunko",
  "kinds": "cultural,museums,interesting_places,art_galleries",
  "city": "Tokyo"
},{
  "placeName": "Konnō Hachiman-gū",
  "kinds": "religion,other_temples,interesting_places",
  "city": "Tokyo"
},{
  "placeName": "Shibuya Infoss Tower",
  "kinds": "skyscrapers,architecture,interesting_places",
  "city": "Tokyo"
},{
  "placeName": "Toshima City Tokiwaso Manga Museum",
  "kinds": "cultural,museums,interesting_places,art_galleries",
  "city": "Tokyo"
},{
  "placeName": "Shibuya 3-chome",
  "kinds": "fortifications,historic,interesting_places,other_fortifications",
  "city": "Tokyo"
},{
  "placeName": "Chinzan-sō Garden",
  "kinds": "urban_environment,gardens_and_parks,cultural,interesting_places",
  "city": "Tokyo"
},{
  "placeName": "High School Art Museum",
  "kinds": "cultural,museums,interesting_places,other_museums",
  "city": "Tokyo"
},{
  "placeName": "New Otani Museum",
  "kinds": "cultural,museums,interesting_places,art_galleries",
  "city": "Tokyo"
},{
  "placeName": "Tetsugakudo Park",
  "kinds": "urban_environment,gardens_and_parks,cultural,interesting_places",
  "city": "Tokyo"
},{
  "placeName": "Heiwanomori Park",
  "kinds": "gardens_and_parks,cultural,urban_environment,interesting_places",
  "city": "Tokyo"
},{
  "placeName": "Toyokawa Inari Betsuin",
  "kinds": "religion,buddhist_temples,interesting_places",
  "city": "Tokyo"
},{
  "placeName": "TOTO GALLERY・MA",
  "kinds": "museums,cultural,interesting_places,art_galleries",
  "city": "Tokyo"
},{
  "placeName": "Nogi Shrine",
  "kinds": "religion,other_temples,interesting_places",
  "city": "Tokyo"
},{
  "placeName": "Japanese Folk Crafts Museum",
  "kinds": "cultural,museums,interesting_places,art_galleries",
  "city": "Tokyo"
},{
  "placeName": "Nogi Park (Former General Nogi's Estate)",
  "kinds": "urban_environment,gardens_and_parks,cultural,interesting_places",
  "city": "Tokyo"
},{
  "placeName": "Tokiwa Matsu Imperial Villa",
  "kinds": "palaces,architecture,historic_architecture,interesting_places",
  "city": "Tokyo"
},{
  "placeName": "Hasedera",
  "kinds": "religion,buddhist_temples,interesting_places",
  "city": "Tokyo"
},{
  "placeName": "Kurenai Museum",
  "kinds": "cultural,museums,interesting_places,art_galleries",
  "city": "Tokyo"
},{
  "placeName": "Nogi Shrine",
  "kinds": "religion,other_temples,interesting_places",
  "city": "Tokyo"
},{
  "placeName": "Kodansha Noma Memorial Museum",
  "kinds": "biographical_museums,historic_house_museums,cultural,museums,interesting_places,history_museums,art_galleries",
  "city": "Tokyo"
},{
  "placeName": "Tokyo Anime Center",
  "kinds": "museums,cultural,interesting_places,other_museums",
  "city": "Tokyo"
},{
  "placeName": "Shimizudani Park",
  "kinds": "urban_environment,gardens_and_parks,cultural,interesting_places",
  "city": "Tokyo"
},{
  "placeName": "Kokugakuin University Museum",
  "kinds": "cultural,museums,interesting_places,other_museums",
  "city": "Tokyo"
},{
  "placeName": "The National Art Center, Tokyo",
  "kinds": "national_museums,cultural,museums,interesting_places,art_galleries",
  "city": "Tokyo"
},{
  "placeName": "Daian-ji",
  "kinds": "religion,buddhist_temples,interesting_places",
  "city": "Tokyo"
},{
  "placeName": "Josenji Temple",
  "kinds": "religion,buddhist_temples,interesting_places",
  "city": "Tokyo"
},{
  "placeName": "Shibuya Folk and Literary Shirane Memorial Museum",
  "kinds": "cultural,museums,interesting_places,history_museums,local_museums",
  "city": "Tokyo"
},{
  "placeName": "Aoyama Park South",
  "kinds": "urban_environment,gardens_and_parks,cultural,interesting_places",
  "city": "Tokyo"
},{
  "placeName": "University Shrine",
  "kinds": "religion,other_temples,interesting_places",
  "city": "Tokyo"
},{
  "placeName": "Agariyashiki Station",
  "kinds": "industrial_facilities,abandoned_railway_stations,interesting_places",
  "city": "Tokyo"
},{
  "placeName": "Jiganin",
  "kinds": "religion,buddhist_temples,interesting_places",
  "city": "Tokyo"
},{
  "placeName": "Wakagi Tower",
  "kinds": "skyscrapers,architecture,interesting_places",
  "city": "Tokyo"
},{
  "placeName": "St. Mary's Cathedral",
  "kinds": "religion,cathedrals,interesting_places",
  "city": "Tokyo"
},{
  "placeName": "Hikawa Shrine",
  "kinds": "religion,other_temples,interesting_places",
  "city": "Tokyo"
},{
  "placeName": "Suginami Historical Museum",
  "kinds": "cultural,museums,interesting_places,history_museums,local_museums",
  "city": "Tokyo"
},{
  "placeName": "Nogata Water Tower",
  "kinds": "towers,architecture,interesting_places,water_towers",
  "city": "Tokyo"
},{
  "placeName": "Tokyo Garden Terrace Kioicho",
  "kinds": "skyscrapers,architecture,interesting_places",
  "city": "Tokyo"
},{
  "placeName": "Rengeji",
  "kinds": "religion,buddhist_temples,interesting_places",
  "city": "Tokyo"
},{
  "placeName": "Grand Prince Hotel Akasaka",
  "kinds": "skyscrapers,architecture,accomodations,interesting_places,other_hotels",
  "city": "Tokyo"
},{
  "placeName": "21_21 Design Sight",
  "kinds": "cultural,museums,interesting_places,art_galleries",
  "city": "Tokyo"
},{
  "placeName": "Battle of Egota-Numabukurohara",
  "kinds": "battlefields,historic,historical_places,interesting_places",
  "city": "Tokyo"
},{
  "placeName": "Koenji Heiwa Theatre",
  "kinds": "theatres_and_entertainments,cultural,interesting_places,other_theatres",
  "city": "Tokyo"
},{
  "placeName": "Meguro Sky Garden",
  "kinds": "urban_environment,gardens_and_parks,cultural,interesting_places",
  "city": "Tokyo"
},{
  "placeName": "Onko Gakkai Hall",
  "kinds": "cultural,museums,interesting_places,other_museums",
  "city": "Tokyo"
},{
  "placeName": "Renkoji Temple",
  "kinds": "religion,buddhist_temples,interesting_places",
  "city": "Tokyo"
},{
  "placeName": "Akasaka ACT Theater",
  "kinds": "cultural,theatres_and_entertainments,interesting_places,other_theatres",
  "city": "Tokyo"
},{
  "placeName": "Suntory Museum of Art",
  "kinds": "cultural,museums,interesting_places,art_galleries",
  "city": "Tokyo"
},{
  "placeName": "Jiyu Gakuen Girls' School",
  "kinds": "cultural,museums,interesting_places,other_museums",
  "city": "Tokyo"
},{
  "placeName": "Akagi Shrine",
  "kinds": "religion,other_temples,interesting_places",
  "city": "Tokyo"
},{
  "placeName": "Osaka Prefectural Nakanoshima Library",
  "kinds": "other,unclassified_objects,interesting_places,historic_object",
  "city": "Osaka"
},{
  "placeName": "Suisho Bridge",
  "kinds": "bridges,architecture,interesting_places,other_bridges",
  "city": "Osaka"
},{
  "placeName": "Yodoya Bridge",
  "kinds": "bridges,architecture,interesting_places,other_bridges",
  "city": "Osaka"
},{
  "placeName": "Oebashi Bridge",
  "kinds": "bridges,architecture,interesting_places,other_bridges",
  "city": "Osaka"
},{
  "placeName": "Osaka City Central Public Hall",
  "kinds": "architecture,historic_architecture,interesting_places,other_buildings_and_structures",
  "city": "Osaka"
},{
  "placeName": "Suisho Bridge",
  "kinds": "bridges,architecture,interesting_places,other_bridges",
  "city": "Osaka"
},{
  "placeName": "Sendannoki Bridge",
  "kinds": "bridges,architecture,interesting_places,other_bridges",
  "city": "Osaka"
},{
  "placeName": "Osaka City Central Public Hall",
  "kinds": "architecture,historic_architecture,interesting_places,other_buildings_and_structures",
  "city": "Osaka"
},{
  "placeName": "Nakanoshima Park",
  "kinds": "urban_environment,gardens_and_parks,cultural,interesting_places",
  "city": "Osaka"
},{
  "placeName": "Sendannoki Bridge",
  "kinds": "bridges,architecture,interesting_places,other_bridges",
  "city": "Osaka"
},{
  "placeName": "Hokonagashi Bridge",
  "kinds": "bridges,architecture,interesting_places,other_bridges",
  "city": "Osaka"
},{
  "placeName": "Tekijuku",
  "kinds": "historic_architecture,architecture,interesting_places,other_buildings_and_structures",
  "city": "Osaka"
},{
  "placeName": "Museum of Oriental Ceramics",
  "kinds": "cultural,museums,interesting_places,art_galleries",
  "city": "Osaka"
},{
  "placeName": "Nakanoshima Garden Bridge",
  "kinds": "bridges,architecture,interesting_places,other_bridges",
  "city": "Osaka"
},{
  "placeName": "Aioi Nissay Dowa Insurance Phoenix Tower",
  "kinds": "skyscrapers,architecture,interesting_places",
  "city": "Osaka"
},{
  "placeName": "UCCJ Naniwa Church",
  "kinds": "religion,churches,interesting_places,other_churches",
  "city": "Osaka"
},{
  "placeName": "Nakanoshima Festival Tower",
  "kinds": "skyscrapers,architecture,interesting_places",
  "city": "Osaka"
},{
  "placeName": "Osaka Festival Hall",
  "kinds": "cultural,theatres_and_entertainments,interesting_places,music_venues",
  "city": "Osaka"
},{
  "placeName": "Nakanoshima Park",
  "kinds": "urban_environment,gardens_and_parks,cultural,interesting_places",
  "city": "Osaka"
},{
  "placeName": "Shibakawa Building",
  "kinds": "historic_architecture,architecture,interesting_places,other_buildings_and_structures",
  "city": "Osaka"
},{
  "placeName": "Kitahama Retro Building",
  "kinds": "historic_architecture,architecture,interesting_places,other_buildings_and_structures",
  "city": "Osaka"
},{
  "placeName": "Hōsei-ji",
  "kinds": "religion,buddhist_temples,interesting_places",
  "city": "Osaka"
},{
  "placeName": "Dōjima Yakushidō",
  "kinds": "religion,buddhist_temples,interesting_places",
  "city": "Osaka"
},{
  "placeName": "Dōjima Yakushidō",
  "kinds": "religion,buddhist_temples,interesting_places",
  "city": "Osaka"
},{
  "placeName": "Dojima Avanza",
  "kinds": "skyscrapers,architecture,interesting_places",
  "city": "Osaka"
},{
  "placeName": "Osaka Ekimae Building No.3",
  "kinds": "skyscrapers,architecture,interesting_places",
  "city": "Osaka"
},{
  "placeName": "Sukunahikona-jinja Shrine",
  "kinds": "religion,other_temples,interesting_places",
  "city": "Osaka"
},{
  "placeName": "Osaka Gas Building",
  "kinds": "historic_architecture,architecture,interesting_places,other_buildings_and_structures",
  "city": "Osaka"
},{
  "placeName": "Doshōmachi Pharmaceutical and Historical Museum",
  "kinds": "science_museums,cultural,museums,interesting_places,history_museums",
  "city": "Osaka"
},{
  "placeName": "Higo-Hosokawa Garden",
  "kinds": "urban_environment,gardens_and_parks,cultural,interesting_places",
  "city": "Tokyo"
},{
  "placeName": "Honden-ji",
  "kinds": "religion,buddhist_temples,interesting_places",
  "city": "Osaka"
},{
  "placeName": "Kitashinchi",
  "kinds": "cultural,urban_environment,interesting_places,squares",
  "city": "Osaka"
},{
  "placeName": "Entsū-in",
  "kinds": "religion,buddhist_temples,interesting_places",
  "city": "Osaka"
},{
  "placeName": "Goryo Jinja Shrine",
  "kinds": "religion,other_temples,interesting_places",
  "city": "Osaka"
},{
  "placeName": "Umeda DT Tower",
  "kinds": "skyscrapers,architecture,interesting_places",
  "city": "Osaka"
},{
  "placeName": "Korai-bashi Bridge",
  "kinds": "bridges,architecture,interesting_places,other_bridges",
  "city": "Osaka"
},{
  "placeName": "Umeda Square Building",
  "kinds": "skyscrapers,architecture,interesting_places",
  "city": "Osaka"
},{
  "placeName": "KEPCO Building",
  "kinds": "skyscrapers,architecture,interesting_places",
  "city": "Osaka"
},{
  "placeName": "Osaka Marubiru",
  "kinds": "skyscrapers,architecture,interesting_places",
  "city": "Osaka"
},{
  "placeName": "Daibiru Honkan Building",
  "kinds": "skyscrapers,architecture,interesting_places",
  "city": "Osaka"
},{
  "placeName": "Horikawa Ebisu Shrine",
  "kinds": "religion,other_temples,interesting_places",
  "city": "Osaka"
},{
  "placeName": "Taiyū-ji",
  "kinds": "religion,buddhist_temples,interesting_places",
  "city": "Osaka"
},{
  "placeName": "Chikuzen-Bashi, Osaka",
  "kinds": "bridges,architecture,interesting_places,other_bridges",
  "city": "Osaka"
},{
  "placeName": "Taiyū-ji",
  "kinds": "religion,buddhist_temples,interesting_places",
  "city": "Osaka"
},{
  "placeName": "UCCJ Osaka Church",
  "kinds": "religion,churches,interesting_places,other_churches",
  "city": "Osaka"
},{
  "placeName": "NTTテレパーク堂島第二ビル",
  "kinds": "skyscrapers,architecture,interesting_places",
  "city": "Osaka"
},{
  "placeName": "Breeze Tower",
  "kinds": "skyscrapers,architecture,interesting_places",
  "city": "Osaka"
},{
  "placeName": "The National Museum of Art, Osaka",
  "kinds": "national_museums,cultural,museums,interesting_places,art_galleries",
  "city": "Osaka"
},{
  "placeName": "Tenjin Bridge",
  "kinds": "bridges,architecture,interesting_places,other_bridges",
  "city": "Osaka"
},{
  "placeName": "Osaka Shiki Musical Theater",
  "kinds": "cultural,theatres_and_entertainments,interesting_places,other_theatres",
  "city": "Osaka"
},{
  "placeName": "Dōjima Yakushidō",
  "kinds": "religion,other_temples,interesting_places",
  "city": "Osaka"
},{
  "placeName": "Minami-Nagasaki Sports Park",
  "kinds": "gardens_and_parks,cultural,urban_environment,interesting_places",
  "city": "Tokyo"
},{
  "placeName": "Osaka Museum of Science and Technology",
  "kinds": "science_museums,cultural,museums,interesting_places",
  "city": "Osaka"
},{
  "placeName": "Hirano-bashi Bridge",
  "kinds": "bridges,architecture,interesting_places,other_bridges",
  "city": "Osaka"
},{
  "placeName": "Tamino-bashi Bridge",
  "kinds": "bridges,architecture,interesting_places,other_bridges",
  "city": "Osaka"
},{
  "placeName": "Honganji Temple Tsumura Betsuin",
  "kinds": "religion,buddhist_temples,interesting_places",
  "city": "Osaka"
},{
  "placeName": "HanjoTei",
  "kinds": "cultural,theatres_and_entertainments,interesting_places,other_theatres",
  "city": "Osaka"
},{
  "placeName": "South Gate Building",
  "kinds": "skyscrapers,architecture,interesting_places",
  "city": "Osaka"
},{
  "placeName": "NTTデータ堂島ビル",
  "kinds": "skyscrapers,architecture,interesting_places",
  "city": "Osaka"
},{
  "placeName": "Herbis Hall",
  "kinds": "skyscrapers,architecture,cultural,theatres_and_entertainments,interesting_places,other_theatres",
  "city": "Osaka"
},{
  "placeName": "YOSHIMOTO NISHIUMEDA THEATER",
  "kinds": "cultural,theatres_and_entertainments,interesting_places,other_theatres",
  "city": "Osaka"
},{
  "placeName": "Ote-bashi Bridge",
  "kinds": "bridges,architecture,interesting_places,other_bridges",
  "city": "Osaka"
},{
  "placeName": "Osaka Nakanoshima National Government Building",
  "kinds": "skyscrapers,architecture,interesting_places",
  "city": "Osaka"
},{
  "placeName": "Tsunashiki Tenjinsha",
  "kinds": "religion,other_temples,interesting_places",
  "city": "Osaka"
},{
  "placeName": "Utsubo Park",
  "kinds": "urban_environment,gardens_and_parks,cultural,interesting_places",
  "city": "Osaka"
},{
  "placeName": "HEP Hall",
  "kinds": "cultural,theatres_and_entertainments,interesting_places,other_theatres",
  "city": "Osaka"
},{
  "placeName": "Minami-Temma Park",
  "kinds": "urban_environment,gardens_and_parks,cultural,interesting_places",
  "city": "Osaka"
},{
  "placeName": "Dojima River Forum",
  "kinds": "cultural,theatres_and_entertainments,interesting_places,music_venues",
  "city": "Osaka"
},{
  "placeName": "North Gate Building",
  "kinds": "skyscrapers,architecture,interesting_places",
  "city": "Osaka"
},{
  "placeName": "The Tower Osaka",
  "kinds": "skyscrapers,architecture,interesting_places",
  "city": "Osaka"
},{
  "placeName": "Tōkaidō Main Line",
  "kinds": "bridges,architecture,interesting_places,other_bridges",
  "city": "Osaka"
},{
  "placeName": "ABC Hall",
  "kinds": "cultural,theatres_and_entertainments,interesting_places,other_theatres",
  "city": "Osaka"
},{
  "placeName": "Umeda Center Building",
  "kinds": "skyscrapers,architecture,interesting_places",
  "city": "Osaka"
},{
  "placeName": "Fukushima Tenman-gū",
  "kinds": "religion,other_temples,interesting_places",
  "city": "Osaka"
},{
  "placeName": "Kusunaga Shrine",
  "kinds": "religion,other_temples,interesting_places",
  "city": "Osaka"
},{
  "placeName": "Fukushima Tenman-gū",
  "kinds": "religion,buddhist_temples,interesting_places",
  "city": "Osaka"
},{
  "placeName": "Tsuyuno Tenjin Shrine",
  "kinds": "religion,other_temples,interesting_places",
  "city": "Osaka"
},{
  "placeName": "Working Model for Two Piece Reclining Figure: Cut",
  "kinds": "historic,monuments_and_memorials,urban_environment,cultural,interesting_places,sculptures,monuments",
  "city": "Osaka"
},{
  "placeName": "Former Konishi Family Residence",
  "kinds": "biographical_museums,historic_house_museums,museums,cultural,interesting_places,history_museums",
  "city": "Osaka"
},{
  "placeName": "O.S. Cinerama Gekijo",
  "kinds": "cinemas,cultural,theatres_and_entertainments,interesting_places",
  "city": "Osaka"
},{
  "placeName": "Namba Betsuin",
  "kinds": "religion,buddhist_temples,interesting_places",
  "city": "Osaka"
},{
  "placeName": "Ikukunitama Shrine",
  "kinds": "religion,other_temples,interesting_places",
  "city": "Osaka"
},{
  "placeName": "Nakazakicho HALL",
  "kinds": "cultural,theatres_and_entertainments,interesting_places,other_theatres",
  "city": "Osaka"
},{
  "placeName": "Theatre Umeda",
  "kinds": "cultural,cinemas,theatres_and_entertainments,interesting_places",
  "city": "Osaka"
},{
  "placeName": "Main Build",
  "kinds": "religion,other_temples,interesting_places",
  "city": "Osaka"
},{
  "placeName": "Jōshō-ji",
  "kinds": "religion,buddhist_temples,interesting_places",
  "city": "Osaka"
},{
  "placeName": "Meiji Yasuda Life Osaka Umeda Building",
  "kinds": "skyscrapers,architecture,interesting_places",
  "city": "Osaka"
},{
  "placeName": "Gate Tower Building",
  "kinds": "skyscrapers,architecture,interesting_places",
  "city": "Osaka"
},{
  "placeName": "Entrepreneurial Museum of Challenge and Innovation",
  "kinds": "biographical_museums,museums,cultural,interesting_places",
  "city": "Osaka"
},{
  "placeName": "Fukushima Tenman-gū",
  "kinds": "religion,other_temples,interesting_places",
  "city": "Osaka"
},{
  "placeName": "Namba Shrine",
  "kinds": "religion,other_temples,interesting_places",
  "city": "Osaka"
},{
  "placeName": "Grand Front Osaka Owner's Tower",
  "kinds": "skyscrapers,architecture,interesting_places",
  "city": "Osaka"
},{
  "placeName": "Sakaro-no-matsu",
  "kinds": "other,unclassified_objects,interesting_places,historic_object",
  "city": "Osaka"
},{
  "placeName": "Nakanoshima Intes",
  "kinds": "skyscrapers,architecture,interesting_places",
  "city": "Osaka"
},{
  "placeName": "Kids Plaza Osaka",
  "kinds": "science_museums,children_museums,cultural,museums,interesting_places,amusements,amusement_parks",
  "city": "Osaka"
},{
  "placeName": "Utsubo Park",
  "kinds": "urban_environment,gardens_and_parks,cultural,interesting_places",
  "city": "Osaka"
},{
  "placeName": "Tenma Hongan-ji",
  "kinds": "religion,architecture,historic_architecture,historic,buddhist_temples,archaeology,interesting_places,destroyed_objects,other_archaeological_sites",
  "city": "Osaka"
},{
  "placeName": "Yuki Museum of Art",
  "kinds": "cultural,museums,interesting_places,art_galleries",
  "city": "Osaka"
},{
  "placeName": "Chaska Chayamachi",
  "kinds": "skyscrapers,architecture,interesting_places",
  "city": "Osaka"
},{
  "placeName": "King Mansion Dōjimagawa",
  "kinds": "skyscrapers,architecture,interesting_places",
  "city": "Osaka"
},{
  "placeName": "Kawasaki-bashi Bridge",
  "kinds": "bridges,architecture,interesting_places,other_bridges",
  "city": "Osaka"
},{
  "placeName": "OAP Tower",
  "kinds": "skyscrapers,architecture,interesting_places",
  "city": "Osaka"
},{
  "placeName": "Mengyo Kaikan",
  "kinds": "historic_architecture,architecture,interesting_places,other_buildings_and_structures",
  "city": "Osaka"
},{
  "placeName": "Amidaike-suji",
  "kinds": "bridges,architecture,interesting_places,other_bridges",
  "city": "Osaka"
},{
  "placeName": "Floating Garden Observatory",
  "kinds": "skyscrapers,architecture,interesting_places",
  "city": "Osaka"
},{
  "placeName": "Osaka Science Museum",
  "kinds": "science_museums,cultural,museums,interesting_places",
  "city": "Osaka"
},{
  "placeName": "Kyuhoji-bashi Bridge",
  "kinds": "bridges,architecture,interesting_places,other_bridges",
  "city": "Osaka"
},{
  "placeName": "Tōkaidō Main Line",
  "kinds": "bridges,architecture,interesting_places,other_bridges",
  "city": "Osaka"
},{
  "placeName": "Osaka Contemporary Art Center",
  "kinds": "cultural,museums,interesting_places,art_galleries",
  "city": "Osaka"
},{
  "placeName": "PIAS Tower",
  "kinds": "skyscrapers,architecture,interesting_places",
  "city": "Osaka"
},{
  "placeName": "Ecchu-bashi Bridge",
  "kinds": "bridges,architecture,interesting_places,other_bridges",
  "city": "Osaka"
},{
  "placeName": "Senpukan",
  "kinds": "architecture,historic_architecture,interesting_places,manor_houses",
  "city": "Osaka"
},{
  "placeName": "Ikasuri Shrine",
  "kinds": "religion,other_temples,interesting_places",
  "city": "Osaka"
},{
  "placeName": "Fukushima Park",
  "kinds": "religion,other_temples,interesting_places",
  "city": "Osaka"
},{
  "placeName": "Amidaike-suji",
  "kinds": "bridges,architecture,interesting_places,other_bridges",
  "city": "Osaka"
},{
  "placeName": "Toyo Show Theater",
  "kinds": "theatres_and_entertainments,cultural,interesting_places,other_theatres",
  "city": "Osaka"
},{
  "placeName": "Kyōbashi",
  "kinds": "bridges,architecture,interesting_places,other_bridges",
  "city": "Osaka"
},{
  "placeName": "The Symphony Hall",
  "kinds": "theatres_and_entertainments,concert_halls,cultural,interesting_places",
  "city": "Osaka"
},{
  "placeName": "Tenjinsha",
  "kinds": "religion,other_temples,interesting_places",
  "city": "Osaka"
},{
  "placeName": "City Tower Nishi-Umeda",
  "kinds": "skyscrapers,architecture,interesting_places",
  "city": "Osaka"
},{
  "placeName": "Sakuranomiya Park",
  "kinds": "urban_environment,gardens_and_parks,cultural,interesting_places",
  "city": "Osaka"
},{
  "placeName": "Susanoo-no-Mikoto-jinja",
  "kinds": "religion,other_temples,interesting_places",
  "city": "Osaka"
},{
  "placeName": "Osaka Fukoku Seimei Building",
  "kinds": "skyscrapers,architecture,interesting_places",
  "city": "Osaka"
},{
  "placeName": "OSAKA福島タワー",
  "kinds": "skyscrapers,architecture,interesting_places",
  "city": "Osaka"
},{
  "placeName": "Samuhara-jinja Shrine",
  "kinds": "religion,other_temples,interesting_places",
  "city": "Osaka"
},{
  "placeName": "Shimo-fukushima Park",
  "kinds": "urban_environment,gardens_and_parks,cultural,interesting_places",
  "city": "Osaka"
},{
  "placeName": "Osaka Tower",
  "kinds": "transmitter_towers,architecture,towers,interesting_places",
  "city": "Osaka"
},{
  "placeName": "Genkoji Temple",
  "kinds": "religion,buddhist_temples,interesting_places",
  "city": "Osaka"
},{
  "placeName": "Gallery Namban",
  "kinds": "cultural,museums,interesting_places,art_galleries",
  "city": "Osaka"
},{
  "placeName": "Osaka Guest House",
  "kinds": "architecture,historic_architecture,interesting_places,other_buildings_and_structures",
  "city": "Osaka"
},{
  "placeName": "Sho-wa-bashi Bridge",
  "kinds": "bridges,architecture,interesting_places,other_bridges",
  "city": "Osaka"
},{
  "placeName": "NHK Osaka Hall",
  "kinds": "cultural,theatres_and_entertainments,interesting_places,music_venues",
  "city": "Osaka"
},{
  "placeName": "Tenjinsha",
  "kinds": "religion,other_temples,interesting_places",
  "city": "Osaka"
},{
  "placeName": "Syoten-Ryokokuinn",
  "kinds": "religion,buddhist_temples,interesting_places",
  "city": "Osaka"
},{
  "placeName": "Shinmachi 1-chome",
  "kinds": "urban_environment,cultural,interesting_places,squares",
  "city": "Osaka"
},{
  "placeName": "Sakuranomiya-Bridge",
  "kinds": "bridges,architecture,interesting_places,other_bridges",
  "city": "Osaka"
},{
  "placeName": "Andoji-bashi Bridge",
  "kinds": "bridges,architecture,interesting_places,other_bridges",
  "city": "Osaka"
},{
  "placeName": "Tenjimbashisuji Rokuchōme Station",
  "kinds": "religion,other_temples,interesting_places",
  "city": "Osaka"
},{
  "placeName": "Tenjimbashisuji Rokuchōme Station",
  "kinds": "religion,other_temples,interesting_places",
  "city": "Osaka"
},{
  "placeName": "Osaka Museum of History",
  "kinds": "cultural,museums,interesting_places,history_museums",
  "city": "Osaka"
},{
  "placeName": "Fujita Art Museum",
  "kinds": "cultural,museums,interesting_places,art_galleries",
  "city": "Osaka"
},{
  "placeName": "Kokubunji Temple",
  "kinds": "religion,buddhist_temples,interesting_places",
  "city": "Osaka"
},{
  "placeName": "Shinsaibashi Suji Shopping Street",
  "kinds": "other,unclassified_objects,interesting_places,tourist_object",
  "city": "Osaka"
},{
  "placeName": "Osaka Loop Line",
  "kinds": "bridges,architecture,interesting_places,viaducts",
  "city": "Osaka"
},{
  "placeName": "Noda-Ebisu-jinja",
  "kinds": "religion,other_temples,interesting_places",
  "city": "Osaka"
},{
  "placeName": "Umeda Arts Theater",
  "kinds": "cultural,theatres_and_entertainments,interesting_places,other_theatres",
  "city": "Osaka"
},{
  "placeName": "Noda Castle",
  "kinds": "fortifications,historic,interesting_places,other_fortifications",
  "city": "Osaka"
},{
  "placeName": "Ishiyama Hongan-ji",
  "kinds": "religion,buddhist_temples,interesting_places",
  "city": "Osaka"
},{
  "placeName": "Kyoikuto",
  "kinds": "historic,monuments_and_memorials,burial_places,interesting_places,other_burial_places,monuments",
  "city": "Osaka"
},{
  "placeName": "Osaka Castle",
  "kinds": "fortifications,historic,interesting_places,castles",
  "city": "Osaka"
},{
  "placeName": "Crystal Tower (Osaka)",
  "kinds": "skyscrapers,architecture,interesting_places",
  "city": "Osaka"
},{
  "placeName": "Wakoji",
  "kinds": "religion,buddhist_temples,interesting_places",
  "city": "Osaka"
},{
  "placeName": "Mitsutera",
  "kinds": "religion,buddhist_temples,interesting_places",
  "city": "Osaka"
},{
  "placeName": "Tosa Inari-jinja",
  "kinds": "religion,other_temples,interesting_places",
  "city": "Osaka"
},{
  "placeName": "TWIN21",
  "kinds": "skyscrapers,architecture,interesting_places",
  "city": "Osaka"
},{
  "placeName": "Sonsai",
  "kinds": "historic,monuments_and_memorials,interesting_places,monuments",
  "city": "Osaka"
},{
  "placeName": "Shin Juso Ohashi Bridge",
  "kinds": "bridges,architecture,interesting_places,other_bridges",
  "city": "Osaka"
},{
  "placeName": "Mint Museum",
  "kinds": "cultural,museums,interesting_places,other_museums",
  "city": "Osaka"
},{
  "placeName": "Aiau Bridge",
  "kinds": "bridges,architecture,interesting_places,other_bridges",
  "city": "Osaka"
},{
  "placeName": "Shinsaibashisuji Shopping Street",
  "kinds": "cultural,urban_environment,interesting_places,squares",
  "city": "Osaka"
},{
  "placeName": "Dotonbori Bridge",
  "kinds": "bridges,architecture,interesting_places,other_bridges",
  "city": "Osaka"
},{
  "placeName": "Daikoku-bashi Bridge",
  "kinds": "bridges,architecture,interesting_places,other_bridges",
  "city": "Osaka"
},{
  "placeName": "Genjō Sanzō-e",
  "kinds": "other,unclassified_objects,interesting_places,historic_object",
  "city": "Osaka"
},{
  "placeName": "Dotonbori Zaza",
  "kinds": "cultural,theatres_and_entertainments,interesting_places,other_theatres",
  "city": "Osaka"
},{
  "placeName": "Kawaguchi Christ Church ,Cathedral",
  "kinds": "religion,cathedrals,interesting_places",
  "city": "Osaka"
},{
  "placeName": "Kami Funatsu-bashi Bridge",
  "kinds": "bridges,architecture,interesting_places,other_bridges",
  "city": "Osaka"
},{
  "placeName": "Kidugawa Bridge",
  "kinds": "bridges,architecture,interesting_places,other_bridges",
  "city": "Osaka"
},{
  "placeName": "Kunosuke-bashi Bridge",
  "kinds": "bridges,architecture,interesting_places,other_bridges",
  "city": "Osaka"
},{
  "placeName": "Kamiyamato-bashi Bridge",
  "kinds": "bridges,architecture,interesting_places,other_bridges",
  "city": "Osaka"
},{
  "placeName": "Shinsaibashisuji Shopping Street",
  "kinds": "cultural,urban_environment,interesting_places,squares",
  "city": "Osaka"
},{
  "placeName": "NHK Osaka Broadcasting Center Building",
  "kinds": "skyscrapers,architecture,interesting_places",
  "city": "Osaka"
},{
  "placeName": "Minato-bashi Bridge",
  "kinds": "bridges,architecture,interesting_places,other_bridges",
  "city": "Osaka"
},{
  "placeName": "Hozenji Temple",
  "kinds": "religion,buddhist_temples,interesting_places",
  "city": "Osaka"
},{
  "placeName": "Soemoncho",
  "kinds": "urban_environment,cultural,interesting_places,squares",
  "city": "Osaka"
},{
  "placeName": "Osaka International Peace Center",
  "kinds": "cultural,museums,interesting_places,other_museums",
  "city": "Osaka"
},{
  "placeName": "Ebisubashi Bridge",
  "kinds": "bridges,architecture,interesting_places,other_bridges",
  "city": "Osaka"
},{
  "placeName": "American Village",
  "kinds": "other,unclassified_objects,interesting_places,tourist_object",
  "city": "Osaka"
},{
  "placeName": "Osaka Castle Bandshell",
  "kinds": "cultural,theatres_and_entertainments,interesting_places,music_venues",
  "city": "Osaka"
},{
  "placeName": "Unaraji",
  "kinds": "religion,buddhist_temples,interesting_places",
  "city": "Osaka"
},{
  "placeName": "Hōzen-ji",
  "kinds": "religion,buddhist_temples,interesting_places",
  "city": "Osaka"
},{
  "placeName": "Izumi Hall",
  "kinds": "concert_halls,cultural,theatres_and_entertainments,interesting_places",
  "city": "Osaka"
},{
  "placeName": "Houkoku-jinja Shrine",
  "kinds": "religion,other_temples,interesting_places",
  "city": "Osaka"
},{
  "placeName": "Ukiniwa Bridge",
  "kinds": "bridges,architecture,interesting_places,suspension_bridges",
  "city": "Osaka"
},{
  "placeName": "Katamachi Station",
  "kinds": "industrial_facilities,abandoned_railway_stations,interesting_places",
  "city": "Osaka"
},{
  "placeName": "Kōzu-gū",
  "kinds": "religion,other_temples,interesting_places",
  "city": "Osaka"
},{
  "placeName": "National Bunraku Theater (Nipponbashi or Nippombashi)",
  "kinds": "puppetries,cultural,theatres_and_entertainments,interesting_places",
  "city": "Osaka"
},{
  "placeName": "Shiomi-bashi Bridge",
  "kinds": "bridges,architecture,interesting_places,other_bridges",
  "city": "Osaka"
},{
  "placeName": "Shin-Yodogawa Great Bridge",
  "kinds": "bridges,architecture,interesting_places,other_bridges",
  "city": "Osaka"
},{
  "placeName": "Osaka Shochikuza",
  "kinds": "cultural,theatres_and_entertainments,interesting_places,other_theatres",
  "city": "Osaka"
},{
  "placeName": "Osaka Museum of Housing and Living",
  "kinds": "cultural,museums,interesting_places,art_galleries",
  "city": "Osaka"
},{
  "placeName": "Tamatsukuri Inari Shrine",
  "kinds": "religion,other_temples,interesting_places",
  "city": "Osaka"
},{
  "placeName": "Osaka-jō Hall",
  "kinds": "cultural,theatres_and_entertainments,interesting_places,other_theatres",
  "city": "Osaka"
},{
  "placeName": "Kasasagimorinomiya",
  "kinds": "religion,other_temples,interesting_places",
  "city": "Osaka"
},{
  "placeName": "Sanada Maru",
  "kinds": "fortifications,historic,interesting_places,other_fortifications",
  "city": "Osaka"
},{
  "placeName": "Namba Grand Kagetsu",
  "kinds": "cultural,theatres_and_entertainments,interesting_places,other_theatres",
  "city": "Osaka"
},{
  "placeName": "Glico",
  "kinds": "architecture,historic_architecture,interesting_places,other_buildings_and_structures",
  "city": "Osaka"
},{
  "placeName": "Tomb for the deceased at the time of the fall of Osaka Castle",
  "kinds": "historic,monuments_and_memorials,interesting_places,monuments",
  "city": "Osaka"
},{
  "placeName": "OBP Castle Tower",
  "kinds": "skyscrapers,architecture,interesting_places",
  "city": "Osaka"
},{
  "placeName": "YES THEATER",
  "kinds": "cultural,theatres_and_entertainments,interesting_places,other_theatres",
  "city": "Osaka"
},{
  "placeName": "5upよしもと",
  "kinds": "theatres_and_entertainments,cultural,interesting_places,other_theatres",
  "city": "Osaka"
},{
  "placeName": "NMB48 Theatre",
  "kinds": "cultural,theatres_and_entertainments,interesting_places,other_theatres",
  "city": "Osaka"
},{
  "placeName": "Ikukunitama Shrine",
  "kinds": "religion,other_temples,interesting_places",
  "city": "Osaka"
},{
  "placeName": "Theater BRAVA!",
  "kinds": "theatres_and_entertainments,cultural,interesting_places,other_theatres",
  "city": "Osaka"
},{
  "placeName": "Kamitsu-jinja",
  "kinds": "religion,other_temples,interesting_places",
  "city": "Osaka"
},{
  "placeName": "Shōren-ji",
  "kinds": "religion,buddhist_temples,interesting_places",
  "city": "Osaka"
},{
  "placeName": "Yodogawa Great Bridge (Route 2)",
  "kinds": "bridges,architecture,interesting_places,other_bridges",
  "city": "Osaka"
},{
  "placeName": "Gensho-ji Temple",
  "kinds": "religion,buddhist_temples,interesting_places",
  "city": "Osaka"
},{
  "placeName": "Osaka Water Museum",
  "kinds": "aquariums,urban_environment,gardens_and_parks,cultural,museums,interesting_places,zoos",
  "city": "Osaka"
},{
  "placeName": "Taisho-bashi Bridge",
  "kinds": "bridges,architecture,interesting_places,other_bridges",
  "city": "Osaka"
},{
  "placeName": "Iwamatsu Bridge",
  "kinds": "bridges,architecture,interesting_places,stone_bridges",
  "city": "Osaka"
},{
  "placeName": "Parks Tower",
  "kinds": "skyscrapers,architecture,interesting_places",
  "city": "Osaka"
},{
  "placeName": "Namba Park",
  "kinds": "other,unclassified_objects,interesting_places,tourist_object",
  "city": "Osaka"
},{
  "placeName": "Orix Theater",
  "kinds": "theatres_and_entertainments,cultural,interesting_places,other_theatres",
  "city": "Osaka"
},{
  "placeName": "In dependent theatre",
  "kinds": "cultural,theatres_and_entertainments,interesting_places,other_theatres",
  "city": "Osaka"
},{
  "placeName": "Osaka Castle registered as tangible cultural property",
  "kinds": "fortifications,historic,interesting_places,other_fortifications",
  "city": "Osaka"
},{
  "placeName": "Hozenji Temple",
  "kinds": "religion,buddhist_temples,interesting_places",
  "city": "Osaka"
},{
  "placeName": "Naniwa Nagara-Toyosaki Palace",
  "kinds": "palaces,architecture,historic_architecture,interesting_places",
  "city": "Osaka"
},{
  "placeName": "juusou bridge",
  "kinds": "bridges,architecture,interesting_places,other_bridges",
  "city": "Osaka"
},{
  "placeName": "Map of Osaka Castle Park",
  "kinds": "cultural,theatres_and_entertainments,interesting_places,music_venues",
  "city": "Osaka"
},{
  "placeName": "Osaka City Sewerage Science Museum",
  "kinds": "cultural,museums,interesting_places,other_museums",
  "city": "Osaka"
},{
  "placeName": "Kaihoji",
  "kinds": "religion,buddhist_temples,interesting_places",
  "city": "Osaka"
},{
  "placeName": "Battle of Bakurōbuchi",
  "kinds": "battlefields,historic,historical_places,interesting_places",
  "city": "Osaka"
},{
  "placeName": "Kami-Yodogawa Bridge",
  "kinds": "bridges,architecture,interesting_places,other_bridges",
  "city": "Osaka"
},{
  "placeName": "Kema-bashi Bridge",
  "kinds": "bridges,architecture,interesting_places,other_bridges",
  "city": "Osaka"
},{
  "placeName": "Osaka Castle Park",
  "kinds": "architecture,historic_architecture,fortifications,historic,urban_environment,gardens_and_parks,cultural,interesting_places,destroyed_objects,other_fortifications",
  "city": "Osaka"
},{
  "placeName": "O-nami-bashi Bridge",
  "kinds": "bridges,architecture,interesting_places,stone_bridges",
  "city": "Osaka"
},{
  "placeName": "Battle of Tennōji",
  "kinds": "battlefields,historic,historical_places,interesting_places",
  "city": "Osaka"
},{
  "placeName": "Matsushita IMP building",
  "kinds": "cultural,theatres_and_entertainments,interesting_places,other_theatres",
  "city": "Osaka"
},{
  "placeName": "Kanaya-bashi Bridge",
  "kinds": "bridges,architecture,interesting_places,other_bridges",
  "city": "Osaka"
},{
  "placeName": "Minatomachi River Place",
  "kinds": "view_points,other,cultural,theatres_and_entertainments,interesting_places,music_venues",
  "city": "Osaka"
},{
  "placeName": "Shinsaibashisuji Shopping Street",
  "kinds": "cultural,urban_environment,interesting_places,squares",
  "city": "Osaka"
},{
  "placeName": "Nankai Building",
  "kinds": "other_buildings,industrial_facilities,interesting_places",
  "city": "Osaka"
},{
  "placeName": "Nippon-bashi Bridge",
  "kinds": "bridges,architecture,interesting_places,other_bridges",
  "city": "Osaka"
},{
  "placeName": "Osaka Prefectural Museum of Kamigata Comedy and Performing Arts",
  "kinds": "cultural,museums,interesting_places,other_museums",
  "city": "Osaka"
},{
  "placeName": "Grand Cathedral of the Virgin Mary of Osaka",
  "kinds": "religion,cathedrals,interesting_places",
  "city": "Osaka"
},{
  "placeName": "Kachōjo Ikuta",
  "kinds": "historic,monuments_and_memorials,interesting_places,monuments",
  "city": "Osaka"
},{
  "placeName": "Grand Cathedral of the Virgin Mary of Osaka",
  "kinds": "religion,cathedrals,interesting_places",
  "city": "Osaka"
},{
  "placeName": "Namba Yasaka Shrine",
  "kinds": "religion,other_temples,interesting_places",
  "city": "Osaka"
},{
  "placeName": "Sankō Shrine",
  "kinds": "religion,buddhist_temples,interesting_places",
  "city": "Osaka"
},{
  "placeName": "Yuhigaokacho",
  "kinds": "mountain_peaks,historic,historical_places,geological_formations,natural,interesting_places,historic_districts",
  "city": "Osaka"
},{
  "placeName": "Namba Yasaka Shrine",
  "kinds": "religion,other_temples,interesting_places",
  "city": "Osaka"
},{
  "placeName": "TORII HALL",
  "kinds": "theatres_and_entertainments,cultural,interesting_places,other_theatres",
  "city": "Osaka"
},{
  "placeName": "Shimoyamato-bashi Bridge",
  "kinds": "bridges,architecture,interesting_places,other_bridges",
  "city": "Osaka"
},{
  "placeName": "ShikitsuMatsunomiya-Okuninushi-jinja",
  "kinds": "religion,other_temples,interesting_places",
  "city": "Osaka"
},{
  "placeName": "Iwasaki Bridge",
  "kinds": "bridges,architecture,interesting_places,other_bridges",
  "city": "Osaka"
},{
  "placeName": "Oe-jinja Shrine",
  "kinds": "religion,other_temples,interesting_places",
  "city": "Osaka"
},{
  "placeName": "Ubuyu Inari-jinja",
  "kinds": "religion,other_temples,interesting_places",
  "city": "Osaka"
},{
  "placeName": "Shoman-in; Aizen-do",
  "kinds": "religion,buddhist_temples,interesting_places",
  "city": "Osaka"
},{
  "placeName": "Independent Theater 2nd",
  "kinds": "cultural,theatres_and_entertainments,interesting_places,other_theatres",
  "city": "Osaka"
},{
  "placeName": "Morinomiya Piloti Hall",
  "kinds": "cultural,theatres_and_entertainments,interesting_places,music_venues",
  "city": "Osaka"
},{
  "placeName": "Tamatsukuri Inari Shrine",
  "kinds": "religion,other_temples,interesting_places",
  "city": "Osaka"
},{
  "placeName": "Nagara Bridge, Osaka",
  "kinds": "bridges,architecture,interesting_places,other_bridges",
  "city": "Osaka"
},{
  "placeName": "Gansenji",
  "kinds": "religion,buddhist_temples,interesting_places",
  "city": "Osaka"
},{
  "placeName": "Shin Kabukiza site",
  "kinds": "cultural,theatres_and_entertainments,interesting_places,other_theatres",
  "city": "Osaka"
},{
  "placeName": "Tamatsukuri Inari Shrine",
  "kinds": "religion,other_temples,interesting_places",
  "city": "Osaka"
},{
  "placeName": "Tamatsukuri Inari Shrine",
  "kinds": "religion,other_temples,interesting_places",
  "city": "Osaka"
},{
  "placeName": "Battle of Shigino",
  "kinds": "battlefields,historic,historical_places,interesting_places",
  "city": "Osaka"
},{
  "placeName": "Gojogu Shrine",
  "kinds": "religion,other_temples,interesting_places",
  "city": "Osaka"
},{
  "placeName": "Hōon'in",
  "kinds": "religion,buddhist_temples,interesting_places",
  "city": "Osaka"
},{
  "placeName": "Kozenji Temple",
  "kinds": "religion,buddhist_temples,interesting_places",
  "city": "Osaka"
},{
  "placeName": "Battle of Imafuku",
  "kinds": "battlefields,historic,historical_places,interesting_places",
  "city": "Osaka"
},{
  "placeName": "Hirota-jinja",
  "kinds": "religion,other_temples,interesting_places",
  "city": "Osaka"
},{
  "placeName": "Higashi-Kōzu-gū",
  "kinds": "religion,other_temples,interesting_places",
  "city": "Osaka"
},{
  "placeName": "Sanadayama Park",
  "kinds": "urban_environment,gardens_and_parks,cultural,interesting_places",
  "city": "Osaka"
},{
  "placeName": "Battle of Tennōji",
  "kinds": "battlefields,historic,historical_places,interesting_places",
  "city": "Osaka"
},{
  "placeName": "Shin-Kabukiza",
  "kinds": "cultural,theatres_and_entertainments,interesting_places,other_theatres",
  "city": "Osaka"
},{
  "placeName": "Namba Parks Cinema",
  "kinds": "cultural,cinemas,theatres_and_entertainments,interesting_places",
  "city": "Osaka"
},{
  "placeName": "Modern Transportation Museum",
  "kinds": "museums,cultural,interesting_places,museums_of_science_and_technology,railway_museums",
  "city": "Osaka"
},{
  "placeName": "Shitennō-ji Honbō Garden",
  "kinds": "gardens_and_parks,cultural,urban_environment,interesting_places",
  "city": "Osaka"
},{
  "placeName": "Sozenji",
  "kinds": "religion,buddhist_temples,interesting_places",
  "city": "Osaka"
},{
  "placeName": "Isshin-ji",
  "kinds": "religion,buddhist_temples,interesting_places",
  "city": "Osaka"
},{
  "placeName": "Kiyomizudera",
  "kinds": "religion,buddhist_temples,interesting_places",
  "city": "Osaka"
},{
  "placeName": "Isshinji",
  "kinds": "religion,buddhist_temples,interesting_places",
  "city": "Osaka"
},{
  "placeName": "Shitennō-ji",
  "kinds": "milestones,religion,buddhist_temples,historic,monuments_and_memorials,interesting_places",
  "city": "Osaka"
},{
  "placeName": "Shitennō-ji",
  "kinds": "milestones,religion,buddhist_temples,historic,monuments_and_memorials,interesting_places",
  "city": "Osaka"
},{
  "placeName": "Osaka Human Rights Museum",
  "kinds": "cultural,museums,interesting_places,other_museums",
  "city": "Osaka"
},{
  "placeName": "Shitennoji",
  "kinds": "religion,buddhist_temples,interesting_places",
  "city": "Osaka"
},{
  "placeName": "Yasui Shrine",
  "kinds": "religion,other_temples,interesting_places",
  "city": "Osaka"
},{
  "placeName": "Shitennō-ji",
  "kinds": "milestones,religion,buddhist_temples,historic,monuments_and_memorials,interesting_places",
  "city": "Osaka"
},{
  "placeName": "Shinsekai",
  "kinds": "other,unclassified_objects,interesting_places,tourist_object",
  "city": "Osaka"
},{
  "placeName": "Tsutenkaku",
  "kinds": "towers,architecture,interesting_places,observation_towers",
  "city": "Osaka"
},{
  "placeName": "Tsutenkaku Tower",
  "kinds": "towers,architecture,interesting_places,observation_towers",
  "city": "Osaka"
},{
  "placeName": "Yasui-jinja Shrine",
  "kinds": "religion,other_temples,interesting_places",
  "city": "Osaka"
},{
  "placeName": "Tokaido Shinkansen",
  "kinds": "bridges,architecture,interesting_places,viaducts",
  "city": "Osaka"
},{
  "placeName": "Tokaido Shinkansen",
  "kinds": "bridges,architecture,interesting_places,viaducts",
  "city": "Osaka"
},{
  "placeName": "Himejima-jinja",
  "kinds": "religion,other_temples,interesting_places",
  "city": "Osaka"
},{
  "placeName": "Yasui Shrine",
  "kinds": "religion,other_temples,interesting_places",
  "city": "Osaka"
},{
  "placeName": "Osaka Municipal Naniwa Library",
  "kinds": "other,unclassified_objects,interesting_places,tourist_object",
  "city": "Osaka"
},{
  "placeName": "Isshinji theatrekura",
  "kinds": "cultural,theatres_and_entertainments,interesting_places,other_theatres",
  "city": "Osaka"
},{
  "placeName": "Tokaido Shinkansen",
  "kinds": "bridges,architecture,interesting_places,viaducts",
  "city": "Osaka"
},{
  "placeName": "Osaka Conference Center",
  "kinds": "cultural,theatres_and_entertainments,interesting_places,other_theatres",
  "city": "Osaka"
},{
  "placeName": "Tokaido Shinkansen",
  "kinds": "bridges,architecture,interesting_places,other_bridges",
  "city": "Osaka"
},{
  "placeName": "Osaka Bay Tower",
  "kinds": "skyscrapers,architecture,interesting_places",
  "city": "Osaka"
},{
  "placeName": "Shitennō-ji Hakkakutei",
  "kinds": "architecture,historic_architecture,interesting_places,other_buildings_and_structures",
  "city": "Osaka"
},{
  "placeName": "Shitennō-ji",
  "kinds": "milestones,religion,buddhist_temples,historic,monuments_and_memorials,interesting_places",
  "city": "Osaka"
},{
  "placeName": "Chausuyama Kofun",
  "kinds": "tumuluses,historic,monuments_and_memorials,burial_places,interesting_places,monuments",
  "city": "Osaka"
},{
  "placeName": "Horikoshi Shrine",
  "kinds": "religion,other_temples,interesting_places",
  "city": "Osaka"
},{
  "placeName": "Tennoji Park",
  "kinds": "urban_environment,gardens_and_parks,cultural,interesting_places",
  "city": "Osaka"
},{
  "placeName": "Sanja-jinja",
  "kinds": "religion,other_temples,interesting_places",
  "city": "Osaka"
},{
  "placeName": "Horikoshi Shrine",
  "kinds": "religion,other_temples,interesting_places",
  "city": "Osaka"
},{
  "placeName": "Osaka Municipal Museum of Art",
  "kinds": "cultural,museums,interesting_places,art_galleries",
  "city": "Osaka"
},{
  "placeName": "Izuo Park",
  "kinds": "urban_environment,gardens_and_parks,cultural,interesting_places",
  "city": "Osaka"
},{
  "placeName": "Hankai Line",
  "kinds": "bridges,architecture,interesting_places,other_bridges",
  "city": "Osaka"
},{
  "placeName": "Tobitahondōri Station",
  "kinds": "industrial_facilities,abandoned_railway_stations,interesting_places",
  "city": "Osaka"
},{
  "placeName": "Abeno Apollo",
  "kinds": "cultural,cinemas,theatres_and_entertainments,interesting_places,shops,malls,tourist_facilities",
  "city": "Osaka"
},{
  "placeName": "Keitakuen",
  "kinds": "urban_environment,gardens_and_parks,cultural,interesting_places",
  "city": "Osaka"
},{
  "placeName": "Okachiyama Tumulus",
  "kinds": "tumuluses,historic,monuments_and_memorials,burial_places,interesting_places,monuments",
  "city": "Osaka"
},{
  "placeName": "Haginochaya Kaikan",
  "kinds": "other,unclassified_objects,interesting_places,tourist_object",
  "city": "Osaka"
},{
  "placeName": "Tennoji Zoo",
  "kinds": "urban_environment,gardens_and_parks,cultural,museums,interesting_places,zoos",
  "city": "Osaka"
},{
  "placeName": "Izuo Park",
  "kinds": "urban_environment,gardens_and_parks,cultural,interesting_places",
  "city": "Osaka"
},{
  "placeName": "Tobita Shinchi",
  "kinds": "cultural,urban_environment,interesting_places,squares",
  "city": "Osaka"
},{
  "placeName": "Hankai Line",
  "kinds": "bridges,architecture,interesting_places,other_bridges",
  "city": "Osaka"
},{
  "placeName": "Hikifune Station",
  "kinds": "industrial_facilities,abandoned_railway_stations,interesting_places",
  "city": "Osaka"
},{
  "placeName": "Abeno Harukas Art Museum",
  "kinds": "cultural,museums,interesting_places,art_galleries",
  "city": "Osaka"
},{
  "placeName": "Sugawara Tenmanguu park",
  "kinds": "religion,other_temples,interesting_places",
  "city": "Osaka"
},{
  "placeName": "Aleph Osaka Training Center",
  "kinds": "religion,other_temples,interesting_places",
  "city": "Osaka"
},{
  "placeName": "Showazan",
  "kinds": "mountain_peaks,interesting_places,natural,geological_formations",
  "city": "Osaka"
},{
  "placeName": "Ohike Bridge",
  "kinds": "bridges,architecture,interesting_places,other_bridges",
  "city": "Osaka"
},{
  "placeName": "Harukas 300",
  "kinds": "view_points,other,skyscrapers,architecture,accomodations,cultural,museums,interesting_places,other_hotels,art_galleries",
  "city": "Osaka"
},{
  "placeName": "Taihei-ji",
  "kinds": "religion,buddhist_temples,interesting_places",
  "city": "Osaka"
},{
  "placeName": "Shōren-ji",
  "kinds": "religion,buddhist_temples,interesting_places",
  "city": "Osaka"
},{
  "placeName": "Tobita",
  "kinds": "industrial_facilities,abandoned_railway_stations,interesting_places",
  "city": "Osaka"
},{
  "placeName": "Shariji 1-chome",
  "kinds": "historic,battlefields,historical_places,interesting_places",
  "city": "Osaka"
},{
  "placeName": "Shariji 2-chome",
  "kinds": "historic,battlefields,historical_places,interesting_places",
  "city": "Osaka"
},{
  "placeName": "Taiyoshi Hyakuban",
  "kinds": "architecture,historic_architecture,interesting_places,manor_houses,restaurants,foods,tourist_facilities",
  "city": "Osaka"
},{
  "placeName": "Tokaido Shinkansen",
  "kinds": "bridges,architecture,interesting_places,other_bridges",
  "city": "Osaka"
},{
  "placeName": "Shikitsu matsunomiya nishinari tabisho",
  "kinds": "religion,other_temples,interesting_places",
  "city": "Osaka"
},{
  "placeName": "Yahataya Park",
  "kinds": "urban_environment,gardens_and_parks,cultural,interesting_places",
  "city": "Osaka"
},{
  "placeName": "Naniwa Station",
  "kinds": "industrial_facilities,abandoned_railway_stations,interesting_places",
  "city": "Osaka"
},{
  "placeName": "Kyoto Prefectural Office Former Building",
  "kinds": "historic_architecture,architecture,interesting_places,other_buildings_and_structures",
  "city": "Kyoto"
},{
  "placeName": "Goou Shrine",
  "kinds": "religion,other_temples,interesting_places",
  "city": "Kyoto"
},{
  "placeName": "Kōdōkan",
  "kinds": "historic_architecture,architecture,interesting_places,other_buildings_and_structures",
  "city": "Kyoto"
},{
  "placeName": "St. Agnes' Episcopal Church",
  "kinds": "religion,cathedrals,interesting_places",
  "city": "Kyoto"
},{
  "placeName": "KBSホール (日本)",
  "kinds": "cultural,theatres_and_entertainments,interesting_places,music_venues",
  "city": "Kyoto"
},{
  "placeName": "Hamaguri-gomon Gate",
  "kinds": "fortifications,historic,interesting_places,other_fortifications",
  "city": "Kyoto"
},{
  "placeName": "Ichijō Modoribashi",
  "kinds": "bridges,architecture,interesting_places,other_bridges",
  "city": "Kyoto"
},{
  "placeName": "Ichijo-modoribashi bridge",
  "kinds": "bridges,architecture,interesting_places,other_bridges",
  "city": "Kyoto"
},{
  "placeName": "Kyoto Alti Hall",
  "kinds": "theatres_and_entertainments,cultural,concert_halls,interesting_places",
  "city": "Kyoto"
},{
  "placeName": "St. Joseph Roman Catholic Church, Nishijin, Kyoto",
  "kinds": "religion,churches,interesting_places,other_churches",
  "city": "Kyoto"
},{
  "placeName": "Kyoto Gyoen National Garden",
  "kinds": "view_points,other,urban_environment,gardens_and_parks,cultural,interesting_places",
  "city": "Kyoto"
},{
  "placeName": "Seimei Shrine",
  "kinds": "religion,other_temples,interesting_places",
  "city": "Kyoto"
},{
  "placeName": "Itsukushima Shrine",
  "kinds": "religion,other_temples,interesting_places",
  "city": "Kyoto"
},{
  "placeName": "Jurakudai",
  "kinds": "fortifications,historic,interesting_places,other_fortifications",
  "city": "Kyoto"
},{
  "placeName": "Site of Jurakudai palace",
  "kinds": "historic,monuments_and_memorials,interesting_places,monuments",
  "city": "Kyoto"
},{
  "placeName": "Fukunaga-jinja",
  "kinds": "religion,other_temples,interesting_places",
  "city": "Kyoto"
},{
  "placeName": "Kyoto Imperial Palace",
  "kinds": "palaces,architecture,historic_architecture,interesting_places",
  "city": "Kyoto"
},{
  "placeName": "Ninomaru Palace (national treasure)",
  "kinds": "fortifications,historic,interesting_places,other_fortifications",
  "city": "Kyoto"
},{
  "placeName": "Kyoto Imperial Palace Park",
  "kinds": "urban_environment,gardens_and_parks,cultural,interesting_places",
  "city": "Kyoto"
},{
  "placeName": "Historic Monuments of Ancient Kyoto (Kyoto, Uji and Otsu Cities)",
  "kinds": "other,unclassified_objects,interesting_places,historic_object",
  "city": "Kyoto"
},{
  "placeName": "Former Imperial Villa Nijō Castle",
  "kinds": "fortifications,historic,interesting_places,castles",
  "city": "Kyoto"
},{
  "placeName": "Shiramine-jingu Shrine",
  "kinds": "religion,other_temples,interesting_places",
  "city": "Kyoto"
},{
  "placeName": "Shiramine Jingu",
  "kinds": "religion,other_temples,interesting_places",
  "city": "Kyoto"
},{
  "placeName": "Sentō-gosho",
  "kinds": "palaces,architecture,historic_architecture,interesting_places",
  "city": "Kyoto"
},{
  "placeName": "The Kyoto City University of Arts Art Gallery",
  "kinds": "museums,cultural,interesting_places,art_galleries",
  "city": "Kyoto"
},{
  "placeName": "Nishijin Toei",
  "kinds": "theatres_and_entertainments,cultural,interesting_places,other_theatres",
  "city": "Kyoto"
},{
  "placeName": "Kyoto City Archaeological Museum",
  "kinds": "archaeological_museums,cultural,museums,interesting_places,history_museums",
  "city": "Kyoto"
},{
  "placeName": "Former Nijo Castle Stone Wall",
  "kinds": "architecture,historic_architecture,fortifications,historic,interesting_places,destroyed_objects,other_fortifications",
  "city": "Kyoto"
},{
  "placeName": "Kyoto City Archaeological Museum",
  "kinds": "archaeological_museums,cultural,museums,interesting_places,history_museums",
  "city": "Kyoto"
},{
  "placeName": "Sento Imperial Palace",
  "kinds": "palaces,architecture,historic_architecture,interesting_places",
  "city": "Kyoto"
},{
  "placeName": "Kyoto International Manga Museum",
  "kinds": "cultural,museums,interesting_places,art_galleries",
  "city": "Kyoto"
},{
  "placeName": "Shinsen-en Temple",
  "kinds": "religion,buddhist_temples,interesting_places",
  "city": "Kyoto"
},{
  "placeName": "Senbon Nikkatsu",
  "kinds": "cultural,cinemas,theatres_and_entertainments,interesting_places",
  "city": "Kyoto"
},{
  "placeName": "Senbon Nikkatsu",
  "kinds": "cultural,cinemas,theatres_and_entertainments,interesting_places",
  "city": "Kyoto"
},{
  "placeName": "Doshisha University Imadegawa Campus",
  "kinds": "historic_architecture,architecture,interesting_places,other_buildings_and_structures",
  "city": "Kyoto"
},{
  "placeName": "Kyoto Orthodox Church. Annunciation Cathedral",
  "kinds": "religion,churches,interesting_places,eastern_orthodox_churches",
  "city": "Kyoto"
},{
  "placeName": "Shinsen-en Garden",
  "kinds": "religion,buddhist_temples,interesting_places",
  "city": "Kyoto"
},{
  "placeName": "Senbonza Theater",
  "kinds": "theatres_and_entertainments,cultural,interesting_places,other_theatres",
  "city": "Kyoto"
},{
  "placeName": "Shinsen-en Temple",
  "kinds": "religion,buddhist_temples,interesting_places",
  "city": "Kyoto"
},{
  "placeName": "Kyoto City Library of Historical Documents",
  "kinds": "cultural,museums,interesting_places,other_museums",
  "city": "Kyoto"
},{
  "placeName": "Nashinoki Shrine",
  "kinds": "religion,other_temples,interesting_places",
  "city": "Kyoto"
},{
  "placeName": "Shimogoryo Shrine",
  "kinds": "religion,other_temples,interesting_places",
  "city": "Kyoto"
},{
  "placeName": "Hōjō-ji",
  "kinds": "religion,buddhist_temples,interesting_places",
  "city": "Kyoto"
},{
  "placeName": "Heian Palace",
  "kinds": "palaces,architecture,historic_architecture,interesting_places",
  "city": "Kyoto"
},{
  "placeName": "Kodo (Gyoganji Temple)",
  "kinds": "religion,buddhist_temples,interesting_places",
  "city": "Kyoto"
},{
  "placeName": "Shōjōke-in",
  "kinds": "religion,buddhist_temples,interesting_places",
  "city": "Kyoto"
},{
  "placeName": "Shimogoryō-jinja",
  "kinds": "religion,other_temples,interesting_places",
  "city": "Kyoto"
},{
  "placeName": "Shimogoryō-jinja",
  "kinds": "religion,other_temples,interesting_places",
  "city": "Kyoto"
},{
  "placeName": "Gyōgan-ji",
  "kinds": "religion,buddhist_temples,interesting_places",
  "city": "Kyoto"
},{
  "placeName": "Honryū-ji",
  "kinds": "religion,buddhist_temples,interesting_places",
  "city": "Kyoto"
},{
  "placeName": "Gyōgan-ji",
  "kinds": "religion,buddhist_temples,interesting_places",
  "city": "Kyoto"
},{
  "placeName": "Rozan-ji",
  "kinds": "religion,buddhist_temples,interesting_places",
  "city": "Kyoto"
},{
  "placeName": "Shōjōke-in",
  "kinds": "religion,buddhist_temples,interesting_places",
  "city": "Kyoto"
},{
  "placeName": "Meifuku-ji",
  "kinds": "religion,buddhist_temples,interesting_places",
  "city": "Kyoto"
},{
  "placeName": "UPLINK Kyoto",
  "kinds": "cultural,cinemas,theatres_and_entertainments,interesting_places",
  "city": "Kyoto"
},{
  "placeName": "Kyoto City Heiankyo Sosei-Kan Museum",
  "kinds": "museums,cultural,interesting_places,history_museums",
  "city": "Kyoto"
},{
  "placeName": "Honzen-ji",
  "kinds": "religion,buddhist_temples,interesting_places",
  "city": "Kyoto"
},{
  "placeName": "Jōdo-in",
  "kinds": "religion,buddhist_temples,interesting_places",
  "city": "Kyoto"
},{
  "placeName": "Sho-koku-ji temple",
  "kinds": "religion,buddhist_temples,interesting_places",
  "city": "Kyoto"
},{
  "placeName": "The Museum of Kyoto",
  "kinds": "cultural,museums,interesting_places,history_museums",
  "city": "Kyoto"
},{
  "placeName": "Myoken-ji Temple",
  "kinds": "religion,buddhist_temples,interesting_places",
  "city": "Kyoto"
},{
  "placeName": "myorenji",
  "kinds": "religion,buddhist_temples,interesting_places",
  "city": "Kyoto"
},{
  "placeName": "Battle of Shōkoku-ji",
  "kinds": "battlefields,historic,historical_places,interesting_places",
  "city": "Kyoto"
},{
  "placeName": "Honpō-ji",
  "kinds": "religion,buddhist_temples,interesting_places",
  "city": "Kyoto"
},{
  "placeName": "Honpo-ji",
  "kinds": "religion,buddhist_temples,interesting_places",
  "city": "Kyoto"
},{
  "placeName": "Heian Museum of Ancient History",
  "kinds": "museums,cultural,interesting_places,history_museums",
  "city": "Kyoto"
},{
  "placeName": "Honpō-ji",
  "kinds": "religion,buddhist_temples,interesting_places",
  "city": "Kyoto"
},{
  "placeName": "Jōtenkaku Museum",
  "kinds": "museums,cultural,interesting_places,art_galleries",
  "city": "Kyoto"
},{
  "placeName": "Rokkaku-dō",
  "kinds": "religion,buddhist_temples,interesting_places",
  "city": "Kyoto"
},{
  "placeName": "Rokkaku-dō",
  "kinds": "religion,buddhist_temples,interesting_places",
  "city": "Kyoto"
},{
  "placeName": "Yūsei-ji",
  "kinds": "religion,buddhist_temples,interesting_places",
  "city": "Kyoto"
},{
  "placeName": "Takenobu Inari-jinja",
  "kinds": "religion,other_temples,interesting_places",
  "city": "Kyoto"
},{
  "placeName": "Battle of Toba-Fushimi",
  "kinds": "battlefields,historic,historical_places,interesting_places",
  "city": "Kyoto"
},{
  "placeName": "former site of Honnō-ji",
  "kinds": "historic_architecture,architecture,interesting_places,other_buildings_and_structures",
  "city": "Kyoto"
},{
  "placeName": "Kitamura Museum",
  "kinds": "cultural,museums,interesting_places,art_galleries",
  "city": "Kyoto"
},{
  "placeName": "Honnō-ji",
  "kinds": "religion,buddhist_temples,interesting_places",
  "city": "Kyoto"
},{
  "placeName": "Honnō-ji",
  "kinds": "religion,buddhist_temples,interesting_places",
  "city": "Kyoto"
},{
  "placeName": "Shakuzouji",
  "kinds": "religion,buddhist_temples,interesting_places",
  "city": "Kyoto"
},{
  "placeName": "Narasaki Ryō",
  "kinds": "historic,monuments_and_memorials,interesting_places,monuments",
  "city": "Kyoto"
},{
  "placeName": "Demachiza",
  "kinds": "cultural,cinemas,theatres_and_entertainments,interesting_places",
  "city": "Kyoto"
},{
  "placeName": "Kōshōji",
  "kinds": "religion,buddhist_temples,interesting_places",
  "city": "Kyoto"
},{
  "placeName": "Shimadzu Foundation Memorial Museum",
  "kinds": "cultural,museums,interesting_places,other_museums",
  "city": "Kyoto"
},{
  "placeName": "Senbonshakado Daihoon-ji Temple",
  "kinds": "religion,buddhist_temples,interesting_places",
  "city": "Kyoto"
},{
  "placeName": "Demachi Futaba",
  "kinds": "cultural,cinemas,theatres_and_entertainments,interesting_places",
  "city": "Kyoto"
},{
  "placeName": "Kyoto art center",
  "kinds": "cultural,museums,interesting_places,other_museums",
  "city": "Kyoto"
},{
  "placeName": "St. Francis Xavier Cathedral, Kyoto",
  "kinds": "religion,churches,cathedrals,interesting_places,catholic_churches",
  "city": "Kyoto"
},{
  "placeName": "Dye museum Seiryu",
  "kinds": "museums,cultural,interesting_places,art_galleries",
  "city": "Kyoto"
},{
  "placeName": "Honno-ji Temple",
  "kinds": "religion,buddhist_temples,interesting_places",
  "city": "Kyoto"
},{
  "placeName": "Ruins of Ryo Kadokura residence",
  "kinds": "historic,monuments_and_memorials,interesting_places,monuments",
  "city": "Kyoto"
},{
  "placeName": "Jūnen-ji",
  "kinds": "religion,buddhist_temples,interesting_places",
  "city": "Kyoto"
},{
  "placeName": "Kitano Station",
  "kinds": "industrial_facilities,abandoned_railway_stations,interesting_places",
  "city": "Kyoto"
},{
  "placeName": "Ganko Takasegawa Nijoen",
  "kinds": "urban_environment,gardens_and_parks,cultural,interesting_places,restaurants,foods,tourist_facilities",
  "city": "Kyoto"
},{
  "placeName": "Entering Takasegawa Kazuyuki",
  "kinds": "architecture,historic_architecture,interesting_places,other_buildings_and_structures",
  "city": "Kyoto"
},{
  "placeName": "Amida-ji",
  "kinds": "religion,buddhist_temples,interesting_places",
  "city": "Kyoto"
},{
  "placeName": "Art Complex 1928",
  "kinds": "theatres_and_entertainments,cultural,interesting_places,other_theatres",
  "city": "Kyoto"
},{
  "placeName": "GEAR Theater",
  "kinds": "cultural,theatres_and_entertainments,interesting_places,other_theatres",
  "city": "Kyoto"
},{
  "placeName": "Battle of Goryō",
  "kinds": "battlefields,historic,historical_places,interesting_places",
  "city": "Kyoto"
},{
  "placeName": "Shitennō-ji",
  "kinds": "milestones,religion,buddhist_temples,historic,monuments_and_memorials,interesting_places",
  "city": "Osaka"
},{
  "placeName": "Kamishichiken",
  "kinds": "urban_environment,cultural,theatres_and_entertainments,interesting_places,other_theatres,squares",
  "city": "Kyoto"
},{
  "placeName": "Abeno Bridge",
  "kinds": "architecture,bridges,interesting_places,viaducts",
  "city": "Osaka"
},{
  "placeName": "Kamishichiken",
  "kinds": "urban_environment,cultural,interesting_places,squares",
  "city": "Kyoto"
},{
  "placeName": "Kannon-ji, Kitano-tenmangu",
  "kinds": "religion,buddhist_temples,interesting_places",
  "city": "Kyoto"
},{
  "placeName": "Kamishichiken",
  "kinds": "urban_environment,cultural,interesting_places,squares",
  "city": "Kyoto"
},{
  "placeName": "Seigan-ji",
  "kinds": "religion,buddhist_temples,interesting_places",
  "city": "Kyoto"
},{
  "placeName": "Kitano Tenman-gū",
  "kinds": "religion,other_temples,interesting_places",
  "city": "Kyoto"
},{
  "placeName": "Tennei-ji",
  "kinds": "religion,buddhist_temples,interesting_places",
  "city": "Kyoto"
},{
  "placeName": "Kyoto Cinema",
  "kinds": "cultural,cinemas,theatres_and_entertainments,interesting_places",
  "city": "Kyoto"
},{
  "placeName": "Eifuku-ji",
  "kinds": "religion,buddhist_temples,interesting_places",
  "city": "Kyoto"
},{
  "placeName": "Zuisen-ji",
  "kinds": "religion,buddhist_temples,interesting_places",
  "city": "Kyoto"
},{
  "placeName": "Seiganji",
  "kinds": "religion,buddhist_temples,interesting_places",
  "city": "Kyoto"
},{
  "placeName": "Kunimichi Kitagaki",
  "kinds": "historic,monuments_and_memorials,cultural,urban_environment,interesting_places,sculptures,monuments",
  "city": "Kyoto"
},{
  "placeName": "Saion-ji",
  "kinds": "religion,buddhist_temples,interesting_places",
  "city": "Kyoto"
},{
  "placeName": "Kenkun Shrine",
  "kinds": "religion,other_temples,interesting_places",
  "city": "Kyoto"
},{
  "placeName": "Kenkun Shrine",
  "kinds": "religion,other_temples,interesting_places",
  "city": "Kyoto"
},{
  "placeName": "Sanjo Ohashi Bridge",
  "kinds": "guest_houses,bridges,architecture,accomodations,interesting_places,foods,bars,tourist_facilities,other_bridges",
  "city": "Kyoto"
},{
  "placeName": "Ponto-chō",
  "kinds": "cultural,urban_environment,interesting_places,squares",
  "city": "Kyoto"
},{
  "placeName": "Kyoto Hanatsuki Theater",
  "kinds": "theatres_and_entertainments,cultural,interesting_places,other_theatres",
  "city": "Kyoto"
},{
  "placeName": "Nagi-Shrine",
  "kinds": "religion,other_temples,interesting_places",
  "city": "Kyoto"
},{
  "placeName": "Nagi Shrine",
  "kinds": "religion,other_temples,interesting_places",
  "city": "Kyoto"
},{
  "placeName": "Salvation Army Kyoto Corps",
  "kinds": "religion,other_temples,interesting_places",
  "city": "Kyoto"
},{
  "placeName": "Kenkun Shrine",
  "kinds": "religion,other_temples,interesting_places",
  "city": "Kyoto"
},{
  "placeName": "Kyoto University Seifuso Villa",
  "kinds": "architecture,historic_architecture,accomodations,urban_environment,gardens_and_parks,cultural,interesting_places,villas_and_chalet,other_buildings_and_structures",
  "city": "Kyoto"
},{
  "placeName": "Mount Funaoka",
  "kinds": "mountain_peaks,interesting_places,natural,geological_formations",
  "city": "Kyoto"
},{
  "placeName": "Kandaijin-jinja",
  "kinds": "religion,other_temples,interesting_places",
  "city": "Kyoto"
},{
  "placeName": "Yagi Mansion",
  "kinds": "historic,archaeology,interesting_places,other_archaeological_sites",
  "city": "Kyoto"
},{
  "placeName": "Kandaijin-jinja",
  "kinds": "religion,other_temples,interesting_places",
  "city": "Kyoto"
},{
  "placeName": "Kyoto University West Campus",
  "kinds": "cultural,museums,interesting_places,other_museums",
  "city": "Kyoto"
},{
  "placeName": "Funaokayama Park",
  "kinds": "historic,battlefields,historical_places,interesting_places",
  "city": "Kyoto"
},{
  "placeName": "Mibu-dera",
  "kinds": "religion,buddhist_temples,interesting_places",
  "city": "Kyoto"
},{
  "placeName": "Hirano-jinja",
  "kinds": "religion,other_temples,interesting_places",
  "city": "Kyoto"
},{
  "placeName": "Joubon-rendaiji",
  "kinds": "religion,buddhist_temples,interesting_places",
  "city": "Kyoto"
},{
  "placeName": "Bukkoji Temple",
  "kinds": "religion,buddhist_temples,interesting_places",
  "city": "Kyoto"
},{
  "placeName": "Jobon-Rendai-ji",
  "kinds": "religion,buddhist_temples,interesting_places",
  "city": "Kyoto"
},{
  "placeName": "Obai-ji temple",
  "kinds": "religion,buddhist_temples,interesting_places",
  "city": "Kyoto"
},{
  "placeName": "Obaiin Temple",
  "kinds": "religion,buddhist_temples,interesting_places",
  "city": "Kyoto"
},{
  "placeName": "Kyoto University Museum",
  "kinds": "cultural,museums,interesting_places,other_museums",
  "city": "Kyoto"
},{
  "placeName": "Ryugen-in temple",
  "kinds": "religion,buddhist_temples,interesting_places",
  "city": "Kyoto"
},{
  "placeName": "Konjaku Monogatarishū",
  "kinds": "other,unclassified_objects,interesting_places,historic_object",
  "city": "Kyoto"
},{
  "placeName": "Zuihou-in",
  "kinds": "religion,buddhist_temples,interesting_places",
  "city": "Kyoto"
},{
  "placeName": "Zuihou-in",
  "kinds": "religion,buddhist_temples,interesting_places",
  "city": "Kyoto"
},{
  "placeName": "Shimogamo-jinga Shrine",
  "kinds": "religion,monasteries,interesting_places",
  "city": "Kyoto"
},{
  "placeName": "Zuihou-in",
  "kinds": "religion,buddhist_temples,interesting_places",
  "city": "Kyoto"
},{
  "placeName": "Zuihou-in",
  "kinds": "religion,buddhist_temples,interesting_places",
  "city": "Kyoto"
},{
  "placeName": "Statue of Hikoichi Orita",
  "kinds": "historic,cultural,urban_environment,monuments_and_memorials,interesting_places,sculptures,monuments",
  "city": "Kyoto"
},{
  "placeName": "Zuihou-in",
  "kinds": "religion,buddhist_temples,interesting_places",
  "city": "Kyoto"
},{
  "placeName": "Byōdō-ji",
  "kinds": "religion,buddhist_temples,interesting_places",
  "city": "Kyoto"
},{
  "placeName": "Zuihou-in",
  "kinds": "religion,buddhist_temples,interesting_places",
  "city": "Kyoto"
},{
  "placeName": "Kohrin-in temple",
  "kinds": "religion,buddhist_temples,interesting_places",
  "city": "Kyoto"
},{
  "placeName": "Hosomi Museum",
  "kinds": "cultural,museums,interesting_places,art_galleries",
  "city": "Kyoto"
},{
  "placeName": "Kohrin-in temple",
  "kinds": "religion,buddhist_temples,interesting_places",
  "city": "Kyoto"
},{
  "placeName": "Zuihou-in",
  "kinds": "religion,buddhist_temples,interesting_places",
  "city": "Kyoto"
},{
  "placeName": "Gojō Tenjinsha",
  "kinds": "religion,other_temples,interesting_places",
  "city": "Kyoto"
},{
  "placeName": "Toh Ka Sai Kan",
  "kinds": "architecture,historic_architecture,interesting_places,restaurants,foods,tourist_facilities,other_buildings_and_structures",
  "city": "Kyoto"
},{
  "placeName": "Kohrin-in temple",
  "kinds": "religion,buddhist_temples,interesting_places",
  "city": "Kyoto"
},{
  "placeName": "Shōgo-in",
  "kinds": "religion,architecture,historic_architecture,buddhist_temples,interesting_places,restaurants,foods,tourist_facilities,other_buildings_and_structures",
  "city": "Kyoto"
},{
  "placeName": "Shijō Ōhashi",
  "kinds": "bridges,architecture,interesting_places,other_bridges",
  "city": "Kyoto"
},{
  "placeName": "Kyoto Municipal Museum of School History",
  "kinds": "cultural,museums,interesting_places,history_museums",
  "city": "Kyoto"
},{
  "placeName": "Okuni Statue",
  "kinds": "historic,monuments_and_memorials,cultural,urban_environment,interesting_places,sculptures,monuments",
  "city": "Kyoto"
},{
  "placeName": "Ryuko-in temple",
  "kinds": "religion,buddhist_temples,interesting_places",
  "city": "Kyoto"
},{
  "placeName": "Rohm Theatre Kyoto",
  "kinds": "theatres_and_entertainments,concert_halls,cultural,interesting_places",
  "city": "Kyoto"
},{
  "placeName": "Shimogamo Shrine",
  "kinds": "religion,other_temples,interesting_places",
  "city": "Kyoto"
},{
  "placeName": "Shimogamo Shrine",
  "kinds": "religion,other_temples,interesting_places",
  "city": "Kyoto"
},{
  "placeName": "Gyokurin-in temple",
  "kinds": "religion,buddhist_temples,interesting_places",
  "city": "Kyoto"
},{
  "placeName": "Minami-za (kabuki Theater)",
  "kinds": "cultural,theatres_and_entertainments,interesting_places,other_theatres",
  "city": "Kyoto"
},{
  "placeName": "Daitoku-ji Temple",
  "kinds": "religion,buddhist_temples,interesting_places",
  "city": "Kyoto"
},{
  "placeName": "Chūgen-ji",
  "kinds": "religion,buddhist_temples,interesting_places",
  "city": "Kyoto"
},{
  "placeName": "Koto-in temple",
  "kinds": "religion,buddhist_temples,interesting_places",
  "city": "Kyoto"
},{
  "placeName": "Hyakumanben Chion-ji",
  "kinds": "religion,buddhist_temples,interesting_places",
  "city": "Kyoto"
},{
  "placeName": "Daisen-in",
  "kinds": "religion,buddhist_temples,interesting_places",
  "city": "Kyoto"
},{
  "placeName": "Daisen-in",
  "kinds": "religion,buddhist_temples,interesting_places",
  "city": "Kyoto"
},{
  "placeName": "Juko-in temple",
  "kinds": "religion,buddhist_temples,interesting_places",
  "city": "Kyoto"
},{
  "placeName": "Okazaki Park",
  "kinds": "urban_environment,gardens_and_parks,cultural,interesting_places",
  "city": "Kyoto"
},{
  "placeName": "Daisen-in",
  "kinds": "religion,buddhist_temples,interesting_places",
  "city": "Kyoto"
},{
  "placeName": "Yurinkan museum",
  "kinds": "cultural,museums,interesting_places,art_galleries",
  "city": "Kyoto"
},{
  "placeName": "Shinju-an temple",
  "kinds": "religion,buddhist_temples,interesting_places",
  "city": "Kyoto"
},{
  "placeName": "Heian-jingu Shrine",
  "kinds": "religion,other_temples,interesting_places",
  "city": "Kyoto"
},{
  "placeName": "Soken-in temple",
  "kinds": "religion,buddhist_temples,interesting_places",
  "city": "Kyoto"
},{
  "placeName": "Kyoto Prefectural Library",
  "kinds": "architecture,historic_architecture,interesting_places,other_buildings_and_structures",
  "city": "Kyoto"
},{
  "placeName": "Shin'en",
  "kinds": "gardens_and_parks,cultural,urban_environment,interesting_places",
  "city": "Kyoto"
},{
  "placeName": "The National Museum of Modern Art, Kyoto",
  "kinds": "national_museums,cultural,museums,interesting_places,art_galleries",
  "city": "Kyoto"
},{
  "placeName": "Kyoto Prefectural Library",
  "kinds": "other,unclassified_objects,interesting_places,tourist_object",
  "city": "Kyoto"
},{
  "placeName": "Daisen-in Zen Garden",
  "kinds": "religion,buddhist_temples,interesting_places",
  "city": "Kyoto"
},{
  "placeName": "National Museum of Modern Art, Kyoto",
  "kinds": "national_museums,cultural,museums,interesting_places,art_galleries",
  "city": "Kyoto"
},{
  "placeName": "Koho-an temple",
  "kinds": "religion,buddhist_temples,interesting_places",
  "city": "Kyoto"
},{
  "placeName": "Kyoto Museum for World Peace",
  "kinds": "cultural,museums,interesting_places,other_museums",
  "city": "Kyoto"
},{
  "placeName": "Hoshun-in temple",
  "kinds": "religion,buddhist_temples,interesting_places",
  "city": "Kyoto"
},{
  "placeName": "O-torii",
  "kinds": "fortifications,historic,interesting_places,other_fortifications",
  "city": "Kyoto"
},{
  "placeName": "Namikawa Cloisonné Museum",
  "kinds": "biographical_museums,historic_house_museums,cultural,museums,interesting_places,history_museums,art_galleries",
  "city": "Kyoto"
},{
  "placeName": "Kyoto Museum for World Peace, Ritsumeikan University",
  "kinds": "cultural,museums,interesting_places,other_museums",
  "city": "Kyoto"
},{
  "placeName": "Gion Kaikan",
  "kinds": "theatres_and_entertainments,cultural,interesting_places,other_theatres",
  "city": "Kyoto"
},{
  "placeName": "Yoshimoto Gion Kagetsu",
  "kinds": "theatres_and_entertainments,cultural,interesting_places,other_theatres",
  "city": "Kyoto"
},{
  "placeName": "Kyoto Municipal Museum of Art",
  "kinds": "cultural,museums,interesting_places,art_galleries",
  "city": "Kyoto"
},{
  "placeName": "Kennin-ji",
  "kinds": "religion,buddhist_temples,interesting_places",
  "city": "Kyoto"
},{
  "placeName": "Kyoto Municipal Museum of Art",
  "kinds": "cultural,museums,interesting_places,art_galleries",
  "city": "Kyoto"
},{
  "placeName": "Kyoto Municipal Museum of Art",
  "kinds": "cultural,museums,interesting_places,art_galleries",
  "city": "Kyoto"
},{
  "placeName": "Shinnyo-ji",
  "kinds": "religion,buddhist_temples,interesting_places",
  "city": "Kyoto"
},{
  "placeName": "Yoshida Shrine",
  "kinds": "religion,other_temples,interesting_places",
  "city": "Kyoto"
},{
  "placeName": "Japan Kanji Museum & Library",
  "kinds": "cultural,museums,interesting_places,other_museums",
  "city": "Kyoto"
},{
  "placeName": "Kyoto Municipal Museum of Art",
  "kinds": "cultural,museums,interesting_places,art_galleries",
  "city": "Kyoto"
},{
  "placeName": "Saiin Kasuga-jinja",
  "kinds": "religion,other_temples,interesting_places",
  "city": "Kyoto"
},{
  "placeName": "Miyagawa",
  "kinds": "urban_environment,cultural,interesting_places,squares",
  "city": "Kyoto"
},{
  "placeName": "Kennin-ji",
  "kinds": "religion,buddhist_temples,interesting_places",
  "city": "Kyoto"
},{
  "placeName": "Kennin-ji",
  "kinds": "religion,buddhist_temples,interesting_places",
  "city": "Kyoto"
},{
  "placeName": "Tōrin-in",
  "kinds": "religion,buddhist_temples,interesting_places",
  "city": "Kyoto"
},{
  "placeName": "Gion Corner",
  "kinds": "cultural,theatres_and_entertainments,interesting_places,other_theatres",
  "city": "Kyoto"
},{
  "placeName": "Yasaka Hall",
  "kinds": "historic_architecture,architecture,interesting_places,other_buildings_and_structures",
  "city": "Kyoto"
},{
  "placeName": "Gion Hanasaki",
  "kinds": "cultural,theatres_and_entertainments,interesting_places,other_theatres,restaurants,foods,tourist_facilities",
  "city": "Kyoto"
},{
  "placeName": "Yasaka Shrine",
  "kinds": "religion,other_temples,interesting_places",
  "city": "Kyoto"
},{
  "placeName": "Gion Kobu Kaburenjo",
  "kinds": "cultural,theatres_and_entertainments,interesting_places,other_theatres",
  "city": "Kyoto"
},{
  "placeName": "Takasegawa Nijo Garden",
  "kinds": "urban_environment,gardens_and_parks,cultural,interesting_places,restaurants,foods,tourist_facilities",
  "city": "Kyoto"
},{
  "placeName": "Kennin-ji",
  "kinds": "religion,buddhist_temples,interesting_places",
  "city": "Kyoto"
},{
  "placeName": "Imamiya Shrine",
  "kinds": "religion,other_temples,interesting_places",
  "city": "Kyoto"
},{
  "placeName": "Kyoto Prefectural Insho-Domoto Museum of Fine Arts",
  "kinds": "biographical_museums,cultural,museums,interesting_places,art_galleries",
  "city": "Kyoto"
},{
  "placeName": "Saiou-in",
  "kinds": "religion,buddhist_temples,interesting_places",
  "city": "Kyoto"
},{
  "placeName": "Eiun-in",
  "kinds": "religion,buddhist_temples,interesting_places",
  "city": "Kyoto"
},{
  "placeName": "Kennin-ji",
  "kinds": "religion,buddhist_temples,interesting_places",
  "city": "Kyoto"
},{
  "placeName": "Tōji-in",
  "kinds": "religion,buddhist_temples,interesting_places",
  "city": "Kyoto"
},{
  "placeName": "Aizuchi Inari-jinja",
  "kinds": "religion,other_temples,interesting_places",
  "city": "Kyoto"
},{
  "placeName": "Shōren-in",
  "kinds": "religion,palaces,architecture,historic_architecture,buddhist_temples,interesting_places",
  "city": "Kyoto"
},{
  "placeName": "Chion-in Precincts",
  "kinds": "milestones,religion,buddhist_temples,historic,monuments_and_memorials,interesting_places",
  "city": "Kyoto"
},{
  "placeName": "Awata-jinja",
  "kinds": "religion,other_temples,interesting_places",
  "city": "Kyoto"
},{
  "placeName": "Myōshin-ji",
  "kinds": "religion,buddhist_temples,interesting_places",
  "city": "Kyoto"
},{
  "placeName": "Manganji",
  "kinds": "religion,buddhist_temples,interesting_places",
  "city": "Kyoto"
},{
  "placeName": "Myōshin-ji",
  "kinds": "religion,buddhist_temples,interesting_places",
  "city": "Kyoto"
},{
  "placeName": "Shoren-in",
  "kinds": "religion,palaces,architecture,historic_architecture,buddhist_temples,interesting_places",
  "city": "Kyoto"
},{
  "placeName": "Kyoto City Zoo",
  "kinds": "urban_environment,gardens_and_parks,cultural,museums,interesting_places,zoos",
  "city": "Kyoto"
},{
  "placeName": "Gojō Ōhashi",
  "kinds": "bridges,architecture,interesting_places,other_bridges",
  "city": "Kyoto"
},{
  "placeName": "Awata-jinja",
  "kinds": "religion,other_temples,interesting_places",
  "city": "Kyoto"
},{
  "placeName": "Yasui Konpira-gu",
  "kinds": "religion,other_temples,interesting_places",
  "city": "Kyoto"
},{
  "placeName": "Mount Yoshida",
  "kinds": "mountain_peaks,geological_formations,natural,interesting_places",
  "city": "Kyoto"
},{
  "placeName": "Saifuku-ji",
  "kinds": "religion,other_temples,interesting_places",
  "city": "Kyoto"
},{
  "placeName": "Daiun-In Temple",
  "kinds": "view_points,other,religion,buddhist_temples,interesting_places",
  "city": "Kyoto"
},{
  "placeName": "Taizoin",
  "kinds": "religion,buddhist_temples,interesting_places",
  "city": "Kyoto"
},{
  "placeName": "Chōkō-dō",
  "kinds": "religion,buddhist_temples,interesting_places",
  "city": "Kyoto"
},{
  "placeName": "Konkai-komyo-ji Temple",
  "kinds": "religion,buddhist_temples,interesting_places",
  "city": "Kyoto"
},{
  "placeName": "Maruyama Park",
  "kinds": "urban_environment,gardens_and_parks,cultural,interesting_places",
  "city": "Kyoto"
},{
  "placeName": "Shunkō-in",
  "kinds": "religion,buddhist_temples,interesting_places",
  "city": "Kyoto"
},{
  "placeName": "Daiun-in;Daiun-In Temple",
  "kinds": "religion,buddhist_temples,interesting_places",
  "city": "Kyoto"
},{
  "placeName": "Awata-jinjya",
  "kinds": "religion,other_temples,interesting_places",
  "city": "Kyoto"
},{
  "placeName": "Rokudouchin-nouji",
  "kinds": "religion,buddhist_temples,interesting_places",
  "city": "Kyoto"
},{
  "placeName": "Hosshō-ji",
  "kinds": "religion,architecture,historic_architecture,historic,buddhist_temples,archaeology,interesting_places,destroyed_objects,other_archaeological_sites",
  "city": "Kyoto"
},{
  "placeName": "Rokuharamitsuji Temple",
  "kinds": "religion,buddhist_temples,interesting_places",
  "city": "Kyoto"
},{
  "placeName": "Hongan-ji Temple Precincts Map",
  "kinds": "religion,buddhist_temples,interesting_places",
  "city": "Kyoto"
},{
  "placeName": "Okazaki-jinja",
  "kinds": "religion,other_temples,interesting_places",
  "city": "Kyoto"
},{
  "placeName": "Murin-an",
  "kinds": "architecture,historic_architecture,accomodations,urban_environment,gardens_and_parks,cultural,interesting_places,villas_and_chalet,other_buildings_and_structures",
  "city": "Kyoto"
},{
  "placeName": "Murin-an",
  "kinds": "architecture,historic_architecture,accomodations,urban_environment,gardens_and_parks,cultural,interesting_places,villas_and_chalet,other_buildings_and_structures",
  "city": "Kyoto"
},{
  "placeName": "Shinsho-gokuraku-ji Temple (Shinnyo-do)",
  "kinds": "religion,buddhist_temples,interesting_places",
  "city": "Kyoto"
},{
  "placeName": "Ayako Tenman-gū",
  "kinds": "religion,other_temples,interesting_places",
  "city": "Kyoto"
},{
  "placeName": "Kamigoryō shrine",
  "kinds": "religion,other_temples,interesting_places",
  "city": "Kyoto"
},{
  "placeName": "Entoku-in North Garden",
  "kinds": "religion,buddhist_temples,urban_environment,gardens_and_parks,cultural,interesting_places",
  "city": "Kyoto"
},{
  "placeName": "Wachigaiya",
  "kinds": "architecture,historic_architecture,interesting_places,other_buildings_and_structures",
  "city": "Kyoto"
},{
  "placeName": "Wachigaiya",
  "kinds": "architecture,historic_architecture,interesting_places,other_buildings_and_structures",
  "city": "Kyoto"
},{
  "placeName": "Entokuin",
  "kinds": "religion,buddhist_temples,interesting_places",
  "city": "Kyoto"
},{
  "placeName": "Rokudōchinnō-ji",
  "kinds": "religion,buddhist_temples,interesting_places",
  "city": "Kyoto"
},{
  "placeName": "Nishi-Honganji Temple",
  "kinds": "religion,buddhist_temples,interesting_places",
  "city": "Kyoto"
},{
  "placeName": "Ono Ranzan",
  "kinds": "historic,monuments_and_memorials,interesting_places,monuments",
  "city": "Kyoto"
},{
  "placeName": "Shimabara",
  "kinds": "urban_environment,cultural,interesting_places,squares",
  "city": "Kyoto"
},{
  "placeName": "Chion-in",
  "kinds": "religion,buddhist_temples,interesting_places",
  "city": "Kyoto"
},{
  "placeName": "Shimabara Ōmon",
  "kinds": "fortifications,historic,interesting_places,other_fortifications",
  "city": "Kyoto"
},{
  "placeName": "Ryukoku-zan Hongwanji (Nishi Hongwanji)",
  "kinds": "religion,buddhist_temples,interesting_places",
  "city": "Kyoto"
},{
  "placeName": "Kyoto Institute, Library and Archives",
  "kinds": "museums,cultural,interesting_places,other_museums",
  "city": "Kyoto"
},{
  "placeName": "Nakaragi Shrine",
  "kinds": "religion,other_temples,interesting_places",
  "city": "Kyoto"
},{
  "placeName": "Ginkgo of Hongan-ji Temple",
  "kinds": "religion,buddhist_temples,interesting_places",
  "city": "Kyoto"
},{
  "placeName": "Kodai-ji Sho Museum",
  "kinds": "religion,buddhist_temples,cultural,museums,interesting_places,other_museums",
  "city": "Kyoto"
},{
  "placeName": "Lake Biwa Canal Museum of Kyoto",
  "kinds": "cultural,museums,interesting_places,other_museums",
  "city": "Kyoto"
},{
  "placeName": "Otani Sobyo",
  "kinds": "cemeteries,historic,monuments_and_memorials,burial_places,interesting_places,mausoleums,monuments",
  "city": "Kyoto"
},{
  "placeName": "Kezō-ji",
  "kinds": "religion,buddhist_temples,interesting_places",
  "city": "Kyoto"
},{
  "placeName": "Keage Incline",
  "kinds": "cultural,urban_environment,interesting_places,squares",
  "city": "Kyoto"
},{
  "placeName": "Kōdai-ji",
  "kinds": "religion,buddhist_temples,interesting_places",
  "city": "Kyoto"
},{
  "placeName": "Sumiya",
  "kinds": "other,unclassified_objects,interesting_places,historic_object",
  "city": "Kyoto"
},{
  "placeName": "Sumiya",
  "kinds": "other,unclassified_objects,interesting_places,historic_object",
  "city": "Kyoto"
},{
  "placeName": "Mount Kinugasa",
  "kinds": "mountain_peaks,geological_formations,natural,interesting_places",
  "city": "Kyoto"
},{
  "placeName": "Ryukoku Museum",
  "kinds": "museums,cultural,interesting_places,other_museums",
  "city": "Kyoto"
},{
  "placeName": "Sumiya",
  "kinds": "cultural,museums,interesting_places,other_museums",
  "city": "Kyoto"
},{
  "placeName": "Sumiya",
  "kinds": "other,unclassified_objects,interesting_places,historic_object",
  "city": "Kyoto"
},{
  "placeName": "SUMIYA",
  "kinds": "other,unclassified_objects,interesting_places,historic_object",
  "city": "Kyoto"
},{
  "placeName": "Higashi Hongan-ji",
  "kinds": "religion,buddhist_temples,interesting_places",
  "city": "Kyoto"
},{
  "placeName": "Kōdai-ji",
  "kinds": "religion,buddhist_temples,interesting_places",
  "city": "Kyoto"
},{
  "placeName": "Kōdai-ji",
  "kinds": "religion,buddhist_temples,interesting_places",
  "city": "Kyoto"
},{
  "placeName": "Kōdai-ji",
  "kinds": "religion,buddhist_temples,interesting_places",
  "city": "Kyoto"
},{
  "placeName": "Anyo Temple",
  "kinds": "religion,buddhist_temples,interesting_places",
  "city": "Kyoto"
},{
  "placeName": "Keage Power Station",
  "kinds": "factories,industrial_facilities,power_stations,interesting_places",
  "city": "Kyoto"
},{
  "placeName": "Yasaka Kōshin-dō",
  "kinds": "religion,buddhist_temples,interesting_places",
  "city": "Kyoto"
},{
  "placeName": "Hokanji Temple, Yasaka Pagoda",
  "kinds": "towers,religion,architecture,buddhist_temples,interesting_places,other_towers",
  "city": "Kyoto"
},{
  "placeName": "Hokanji Temple, Yasaka Pagoda",
  "kinds": "towers,religion,architecture,buddhist_temples,interesting_places,other_towers",
  "city": "Kyoto"
},{
  "placeName": "Shoseien",
  "kinds": "urban_environment,gardens_and_parks,cultural,interesting_places",
  "city": "Kyoto"
},{
  "placeName": "Hokanji Temple",
  "kinds": "towers,religion,architecture,buddhist_temples,interesting_places,other_towers",
  "city": "Kyoto"
},{
  "placeName": "Daimonjiyama",
  "kinds": "mountain_peaks,geological_formations,natural,interesting_places",
  "city": "Kyoto"
},{
  "placeName": "Kyoto Concert Hall",
  "kinds": "theatres_and_entertainments,concert_halls,cultural,interesting_places",
  "city": "Kyoto"
},{
  "placeName": "Hokanji Temple, Yasaka Pagoda",
  "kinds": "towers,religion,architecture,buddhist_temples,interesting_places,other_towers",
  "city": "Kyoto"
},{
  "placeName": "Kōdai-ji",
  "kinds": "religion,buddhist_temples,interesting_places",
  "city": "Kyoto"
},{
  "placeName": "Hōkongō-in",
  "kinds": "religion,buddhist_temples,interesting_places",
  "city": "Kyoto"
},{
  "placeName": "Ryozen Kannon Temple",
  "kinds": "religion,buddhist_temples,historic,burial_places,urban_environment,cultural,interesting_places,war_memorials,sculptures",
  "city": "Kyoto"
},{
  "placeName": "Kyoto Prefectural Library and Archives",
  "kinds": "museums,cultural,interesting_places,other_museums",
  "city": "Kyoto"
},{
  "placeName": "Tairyū-Sansō",
  "kinds": "historic_architecture,architecture,accomodations,interesting_places,villas_and_chalet,other_buildings_and_structures",
  "city": "Kyoto"
},{
  "placeName": "Kyoto Greek & Roman Museum",
  "kinds": "cultural,museums,interesting_places,art_galleries",
  "city": "Kyoto"
},{
  "placeName": "Toji Hyakugo Monjo",
  "kinds": "other,unclassified_objects,interesting_places,historic_object",
  "city": "Kyoto"
},{
  "placeName": "Koshoji Temple",
  "kinds": "religion,buddhist_temples,interesting_places",
  "city": "Kyoto"
},{
  "placeName": "Garden of Fine Arts Kyoto",
  "kinds": "museums,cultural,interesting_places,open_air_museums,art_galleries",
  "city": "Kyoto"
},{
  "placeName": "Ryoanji Temple",
  "kinds": "religion,buddhist_temples,gardens_and_parks,cultural,urban_environment,interesting_places",
  "city": "Kyoto"
},{
  "placeName": "Ryōzen Cemetery",
  "kinds": "cemeteries,historic,burial_places,interesting_places",
  "city": "Kyoto"
},{
  "placeName": "Sumiyoshi Otomo Shrine",
  "kinds": "religion,other_temples,interesting_places",
  "city": "Kyoto"
},{
  "placeName": "Ryōan-ji",
  "kinds": "religion,buddhist_temples,urban_environment,gardens_and_parks,cultural,interesting_places",
  "city": "Kyoto"
},{
  "placeName": "Sen-oku Hakuko Kan",
  "kinds": "cultural,museums,interesting_places,art_galleries",
  "city": "Kyoto"
},{
  "placeName": "Ryozen Museum of History",
  "kinds": "cultural,museums,interesting_places,history_museums",
  "city": "Kyoto"
},{
  "placeName": "Kyoto Ryozen-Gokoku Shrine",
  "kinds": "religion,other_temples,interesting_places",
  "city": "Kyoto"
},{
  "placeName": "Mimizuka",
  "kinds": "historic,monuments_and_memorials,burial_places,interesting_places,other_burial_places,monuments",
  "city": "Kyoto"
},{
  "placeName": "Nanzen-ji",
  "kinds": "religion,buddhist_temples,interesting_places",
  "city": "Kyoto"
},{
  "placeName": "Hōkō-ji",
  "kinds": "religion,buddhist_temples,interesting_places",
  "city": "Kyoto"
},{
  "placeName": "Kiyomizu Sannenzaka Museum",
  "kinds": "cultural,museums,interesting_places,art_galleries",
  "city": "Kyoto"
},{
  "placeName": "Hekiun-so",
  "kinds": "architecture,historic_architecture,accomodations,urban_environment,gardens_and_parks,cultural,interesting_places,villas_and_chalet,other_buildings_and_structures",
  "city": "Kyoto"
},{
  "placeName": "Sannei-zaka",
  "kinds": "cultural,urban_environment,interesting_places,squares",
  "city": "Kyoto"
},{
  "placeName": "Hakusasonsō",
  "kinds": "historic_architecture,architecture,interesting_places,other_buildings_and_structures",
  "city": "Kyoto"
},{
  "placeName": "Tenju-an",
  "kinds": "religion,buddhist_temples,interesting_places",
  "city": "Kyoto"
},{
  "placeName": "Nanzen-ji",
  "kinds": "religion,buddhist_temples,interesting_places",
  "city": "Kyoto"
},{
  "placeName": "Nanzen-ji",
  "kinds": "religion,buddhist_temples,interesting_places",
  "city": "Kyoto"
},{
  "placeName": "Toyokuni Shrine",
  "kinds": "religion,other_temples,interesting_places",
  "city": "Kyoto"
},{
  "placeName": "Nanzen-ji",
  "kinds": "religion,architecture,historic_architecture,buddhist_temples,interesting_places,restaurants,foods,tourist_facilities,other_buildings_and_structures",
  "city": "Kyoto"
},{
  "placeName": "Tenporinji",
  "kinds": "religion,buddhist_temples,interesting_places",
  "city": "Kyoto"
},{
  "placeName": "Narabigaoka",
  "kinds": "mountain_peaks,interesting_places,natural,geological_formations",
  "city": "Kyoto"
},{
  "placeName": "Eikan-dō Zenrin-ji",
  "kinds": "religion,buddhist_temples,interesting_places",
  "city": "Kyoto"
},{
  "placeName": "Koryo Museum of Art",
  "kinds": "cultural,museums,interesting_places,art_galleries",
  "city": "Kyoto"
},{
  "placeName": "Kyoto Daibutsu",
  "kinds": "historic,cultural,urban_environment,monuments_and_memorials,interesting_places,sculptures,monuments",
  "city": "Kyoto"
},{
  "placeName": "Shichijo Bridge",
  "kinds": "bridges,architecture,interesting_places,other_bridges",
  "city": "Kyoto"
},{
  "placeName": "Otani-hombyo",
  "kinds": "religion,buddhist_temples,historic,monuments_and_memorials,burial_places,interesting_places,mausoleums,monuments",
  "city": "Kyoto"
},{
  "placeName": "Nomura Art Museum",
  "kinds": "cultural,museums,interesting_places,art_galleries",
  "city": "Kyoto"
},{
  "placeName": "Insho-Domoto museum of fine arts",
  "kinds": "biographical_museums,cultural,museums,interesting_places,art_galleries",
  "city": "Kyoto"
},{
  "placeName": "Ninna-ji temple",
  "kinds": "religion,buddhist_temples,interesting_places",
  "city": "Kyoto"
},{
  "placeName": "Konoshima Shrine",
  "kinds": "religion,other_temples,interesting_places",
  "city": "Kyoto"
},{
  "placeName": "Mount Kachō",
  "kinds": "mountain_peaks,interesting_places,natural,geological_formations",
  "city": "Kyoto"
},{
  "placeName": "Kyoto Tower",
  "kinds": "towers,architecture,interesting_places,observation_towers",
  "city": "Kyoto"
},{
  "placeName": "Kyoto Aquarium",
  "kinds": "aquariums,urban_environment,gardens_and_parks,cultural,museums,interesting_places,zoos",
  "city": "Kyoto"
},{
  "placeName": "Kyoto Tower",
  "kinds": "view_points,other,architecture,towers,interesting_places,observation_towers",
  "city": "Kyoto"
},{
  "placeName": "Tenju-an",
  "kinds": "milestones,religion,buddhist_temples,historic,monuments_and_memorials,interesting_places",
  "city": "Kyoto"
},{
  "placeName": "Otani Honbyo",
  "kinds": "historic,monuments_and_memorials,burial_places,interesting_places,mausoleums,monuments",
  "city": "Kyoto"
},{
  "placeName": "Eikan-dō Zenrin-ji",
  "kinds": "religion,buddhist_temples,interesting_places",
  "city": "Kyoto"
},{
  "placeName": "Umekoji Park",
  "kinds": "urban_environment,gardens_and_parks,cultural,interesting_places",
  "city": "Kyoto"
},{
  "placeName": "Nanzen-ji",
  "kinds": "religion,buddhist_temples,interesting_places",
  "city": "Kyoto"
},{
  "placeName": "Nanzen-in",
  "kinds": "religion,buddhist_temples,interesting_places",
  "city": "Kyoto"
},{
  "placeName": "Nanzen-in Temple",
  "kinds": "religion,buddhist_temples,interesting_places",
  "city": "Kyoto"
},{
  "placeName": "Nanzen-ji",
  "kinds": "religion,buddhist_temples,interesting_places",
  "city": "Kyoto"
},{
  "placeName": "Umekōji Park",
  "kinds": "urban_environment,gardens_and_parks,cultural,interesting_places",
  "city": "Kyoto"
},{
  "placeName": "Kyoto National Museum",
  "kinds": "national_museums,cultural,museums,interesting_places",
  "city": "Kyoto"
},{
  "placeName": "Umekōji Steam Locomotive Museum",
  "kinds": "museums,cultural,interesting_places,museums_of_science_and_technology,railway_museums",
  "city": "Kyoto"
},{
  "placeName": "Shaka rising from the Gold Coffin",
  "kinds": "other,unclassified_objects,interesting_places,historic_object",
  "city": "Kyoto"
},{
  "placeName": "Anraku-ji",
  "kinds": "religion,buddhist_temples,interesting_places",
  "city": "Kyoto"
},{
  "placeName": "Hōnen-in",
  "kinds": "religion,buddhist_temples,interesting_places",
  "city": "Kyoto"
},{
  "placeName": "Higashiyama Mount Peak Park",
  "kinds": "urban_environment,gardens_and_parks,cultural,interesting_places",
  "city": "Kyoto"
},{
  "placeName": "Myōhō-in",
  "kinds": "religion,buddhist_temples,interesting_places",
  "city": "Kyoto"
},{
  "placeName": "Kyoto-Gekijo",
  "kinds": "cultural,theatres_and_entertainments,interesting_places,other_theatres",
  "city": "Kyoto"
},{
  "placeName": "Hōnen-in",
  "kinds": "religion,buddhist_temples,interesting_places",
  "city": "Kyoto"
},{
  "placeName": "Kyoto railway museum",
  "kinds": "cultural,museums,interesting_places,museums_of_science_and_technology,railway_museums",
  "city": "Kyoto"
},{
  "placeName": "Fu-ka Ginkakuji",
  "kinds": "religion,architecture,historic_architecture,buddhist_temples,urban_environment,gardens_and_parks,cultural,interesting_places,restaurants,foods,tourist_facilities,other_buildings_and_structures",
  "city": "Kyoto"
},{
  "placeName": "Sangsunjen Temple",
  "kinds": "religion,buddhist_temples,interesting_places",
  "city": "Kyoto"
},{
  "placeName": "Sanjūsangen-dō",
  "kinds": "religion,buddhist_temples,interesting_places",
  "city": "Kyoto"
},{
  "placeName": "Kiyomizu-dera",
  "kinds": "religion,buddhist_temples,interesting_places",
  "city": "Kyoto"
},{
  "placeName": "Jōdo-in",
  "kinds": "religion,buddhist_temples,interesting_places",
  "city": "Kyoto"
},{
  "placeName": "Jōdo-in",
  "kinds": "religion,buddhist_temples,interesting_places",
  "city": "Kyoto"
},{
  "placeName": "Jōdo-in",
  "kinds": "religion,buddhist_temples,interesting_places",
  "city": "Kyoto"
},{
  "placeName": "Jishu Shrine",
  "kinds": "religion,other_temples,interesting_places",
  "city": "Kyoto"
},{
  "placeName": "Tokaido Shinkansen",
  "kinds": "bridges,architecture,interesting_places,other_bridges",
  "city": "Kyoto"
},{
  "placeName": "Tokaido Shinkansen",
  "kinds": "bridges,architecture,interesting_places,other_bridges",
  "city": "Kyoto"
},{
  "placeName": "Tokaido Shinkansen",
  "kinds": "bridges,architecture,interesting_places,other_bridges",
  "city": "Kyoto"
},{
  "placeName": "Torii of Jishu Shrine",
  "kinds": "religion,other_temples,interesting_places",
  "city": "Kyoto"
},{
  "placeName": "Kiyomizu-dera Temple",
  "kinds": "religion,buddhist_temples,interesting_places",
  "city": "Kyoto"
},{
  "placeName": "Tokaido Shinkansen",
  "kinds": "bridges,architecture,interesting_places,other_bridges",
  "city": "Kyoto"
},{
  "placeName": "Ginkaku",
  "kinds": "religion,buddhist_temples,urban_environment,gardens_and_parks,cultural,interesting_places",
  "city": "Kyoto"
},{
  "placeName": "Kyoto Botanical Garden",
  "kinds": "urban_environment,gardens_and_parks,cultural,interesting_places",
  "city": "Kyoto"
},{
  "placeName": "Tokaido Shinkansen",
  "kinds": "bridges,architecture,interesting_places,other_bridges",
  "city": "Kyoto"
},{
  "placeName": "Tokaido Shinkansen",
  "kinds": "bridges,architecture,interesting_places,other_bridges",
  "city": "Kyoto"
},{
  "placeName": "Tokaido Shinkansen",
  "kinds": "bridges,architecture,interesting_places,other_bridges",
  "city": "Kyoto"
},{
  "placeName": "Philosopher's Walk",
  "kinds": "cultural,urban_environment,interesting_places,squares",
  "city": "Kyoto"
},{
  "placeName": "Kiyomizu-dera precincts guide map",
  "kinds": "religion,buddhist_temples,interesting_places",
  "city": "Kyoto"
},{
  "placeName": "Tokaido Shinkansen",
  "kinds": "bridges,architecture,interesting_places,other_bridges",
  "city": "Kyoto"
},{
  "placeName": "Tokaido Shinkansen",
  "kinds": "bridges,architecture,interesting_places,other_bridges",
  "city": "Kyoto"
},{
  "placeName": "Shoin",
  "kinds": "religion,buddhist_temples,urban_environment,gardens_and_parks,cultural,interesting_places",
  "city": "Kyoto"
},{
  "placeName": "Tokaido Shinkansen",
  "kinds": "bridges,architecture,interesting_places,other_bridges",
  "city": "Kyoto"
},{
  "placeName": "Siege of Hōjūjidono",
  "kinds": "battlefields,historic,historical_places,interesting_places",
  "city": "Kyoto"
},{
  "placeName": "Hōjūjidono",
  "kinds": "religion,buddhist_temples,interesting_places",
  "city": "Kyoto"
},{
  "placeName": "Himukai-daijingū",
  "kinds": "religion,other_temples,interesting_places",
  "city": "Kyoto"
},{
  "placeName": "Ginkakuji Temple",
  "kinds": "religion,buddhist_temples,urban_environment,gardens_and_parks,cultural,interesting_places",
  "city": "Kyoto"
},{
  "placeName": "Yogen-in",
  "kinds": "religion,buddhist_temples,cultural,museums,interesting_places,other_museums",
  "city": "Kyoto"
},{
  "placeName": "Amazuka Kofun",
  "kinds": "tumuluses,historic,monuments_and_memorials,burial_places,archaeology,interesting_places,other_archaeological_sites,monuments",
  "city": "Kyoto"
},{
  "placeName": "Tokaido Shinkansen",
  "kinds": "bridges,architecture,interesting_places,other_bridges",
  "city": "Kyoto"
},{
  "placeName": "Rokusonnō Shrine",
  "kinds": "religion,other_temples,interesting_places",
  "city": "Kyoto"
},{
  "placeName": "Himukai daijingu",
  "kinds": "religion,other_temples,interesting_places",
  "city": "Kyoto"
},{
  "placeName": "Tokaido Shinkansen",
  "kinds": "bridges,architecture,interesting_places,other_bridges",
  "city": "Kyoto"
},{
  "placeName": "Tokaido Shinkansen",
  "kinds": "bridges,architecture,interesting_places,other_bridges",
  "city": "Kyoto"
}]